{"type":"FeatureCollection","name":"Охотничье угодье Партизан","features":[{"type":"Feature","properties":{"name":"Партизан","source":"Указ Главы Республики Крым от 27.08.2026 № 276-У","coordinate_system":"WGS-84","outer_boundary_points":894,"inner_boundary_rings":[{"site":1,"points":"895-899"}],"area_thousand_hectares":5.411,"label_points":[[34.084,44.787]]},"geometry":{"type":"Polygon","coordinates":[[[34.149463,44.765733],[34.149458,44.765751],[34.149313,44.766203],[34.149306,44.766225],[34.149299,44.766247],[34.14918,44.76662],[34.149152,44.766704],[34.149134,44.767392],[34.149129,44.767571],[34.149209,44.767967],[34.149211,44.767981],[34.149213,44.76799],[34.149219,44.768],[34.149537,44.768554],[34.149685,44.768812],[34.149827,44.769059],[34.150159,44.769958],[34.150165,44.769975],[34.150245,44.770192],[34.150344,44.770459],[34.150348,44.770469],[34.150352,44.77048],[34.150599,44.771149],[34.151459,44.77348],[34.151465,44.773497],[34.150694,44.773667],[34.149736,44.773877],[34.14881,44.774081],[34.148782,44.774087],[34.148745,44.774095],[34.148165,44.774223],[34.147732,44.774318],[34.146842,44.774513],[34.145219,44.77487],[34.143435,44.775262],[34.139914,44.776036],[34.139237,44.776184],[34.139225,44.776187],[34.139212,44.77619],[34.138846,44.77627],[34.138829,44.776274],[34.138811,44.776278],[34.137615,44.776541],[34.134993,44.777117],[34.134484,44.777229],[34.134459,44.777234],[34.134489,44.777409],[34.134493,44.777432],[34.134495,44.777443],[34.13457,44.777886],[34.134572,44.777897],[34.134574,44.777908],[34.134672,44.77849],[34.134965,44.78022],[34.134967,44.78023],[34.134969,44.780239],[34.135042,44.780672],[34.135044,44.780685],[34.135046,44.780697],[34.135525,44.783524],[34.135674,44.784008],[34.135679,44.784026],[34.132759,44.784046],[34.131782,44.784052],[34.131768,44.784053],[34.131136,44.784057],[34.131123,44.784057],[34.13111,44.784057],[34.13026,44.784063],[34.129795,44.784066],[34.129782,44.784066],[34.129769,44.784066],[34.12914,44.78407],[34.128338,44.784076],[34.128322,44.784076],[34.128309,44.784076],[34.12723,44.784083],[34.127216,44.784083],[34.127203,44.784083],[34.126584,44.784087],[34.126055,44.784091],[34.125075,44.783782],[34.124503,44.783601],[34.124083,44.78412],[34.123998,44.784225],[34.123979,44.784249],[34.123967,44.784266],[34.123849,44.784433],[34.123831,44.784458],[34.123733,44.784493],[34.123366,44.784626],[34.121573,44.785272],[34.121537,44.785564],[34.120757,44.786142],[34.120656,44.786216],[34.120052,44.786537],[34.119344,44.787134],[34.119265,44.787273],[34.118972,44.787786],[34.118144,44.788592],[34.117924,44.789055],[34.117747,44.789427],[34.117157,44.790665],[34.116853,44.791305],[34.116844,44.791323],[34.116852,44.791364],[34.116896,44.791608],[34.116899,44.791626],[34.1169,44.79163],[34.116903,44.791634],[34.116917,44.791652],[34.117225,44.79205],[34.117229,44.792055],[34.117901,44.792372],[34.118089,44.792461],[34.118973,44.792502],[34.118976,44.792504],[34.119135,44.792601],[34.119086,44.793053],[34.119084,44.793066],[34.119099,44.793073],[34.119215,44.79313],[34.119363,44.793204],[34.119509,44.793276],[34.119749,44.793745],[34.119321,44.794138],[34.119316,44.794142],[34.119315,44.794147],[34.119235,44.794448],[34.119166,44.794708],[34.119209,44.794762],[34.119628,44.795287],[34.119629,44.795289],[34.119631,44.79529],[34.119771,44.795404],[34.120524,44.796013],[34.120559,44.796041],[34.120719,44.796171],[34.120979,44.796633],[34.120994,44.796971],[34.120996,44.797007],[34.120996,44.797018],[34.121008,44.797024],[34.121246,44.797157],[34.12125,44.797159],[34.121255,44.79716],[34.121394,44.797195],[34.121714,44.797275],[34.122275,44.797256],[34.122489,44.797307],[34.122648,44.797345],[34.122789,44.797447],[34.12287,44.797505],[34.122875,44.797509],[34.122892,44.797521],[34.122828,44.797865],[34.120909,44.797754],[34.120671,44.79774],[34.119999,44.797701],[34.116592,44.797504],[34.116489,44.797661],[34.115589,44.799028],[34.115569,44.799058],[34.115549,44.799088],[34.114946,44.800004],[34.114935,44.80002],[34.118035,44.801047],[34.117968,44.801171],[34.117847,44.801391],[34.117377,44.802254],[34.117279,44.802434],[34.116941,44.803054],[34.116633,44.803619],[34.116288,44.804253],[34.115932,44.804906],[34.115919,44.80493],[34.115906,44.804953],[34.115197,44.806184],[34.114893,44.806713],[34.114781,44.806925],[34.11477,44.806946],[34.114758,44.806967],[34.114219,44.807987],[34.113924,44.808543],[34.112486,44.811259],[34.112461,44.811306],[34.112452,44.811323],[34.111847,44.811127],[34.111814,44.811116],[34.111755,44.811098],[34.108192,44.809944],[34.108183,44.809941],[34.10816,44.809934],[34.108153,44.809945],[34.107436,44.811059],[34.107426,44.811076],[34.107243,44.81136],[34.107064,44.811638],[34.107057,44.811649],[34.107052,44.811657],[34.106801,44.812047],[34.106361,44.812732],[34.106355,44.812741],[34.106349,44.812751],[34.105792,44.813616],[34.105673,44.813802],[34.105599,44.813916],[34.103857,44.816625],[34.103755,44.816784],[34.103516,44.817156],[34.10351,44.817164],[34.103505,44.817172],[34.103387,44.817355],[34.103244,44.817578],[34.102983,44.817985],[34.102972,44.818001],[34.100912,44.821199],[34.100754,44.821178],[34.099606,44.821026],[34.098243,44.820658],[34.096324,44.820141],[34.096223,44.820114],[34.095153,44.819825],[34.095026,44.819791],[34.088306,44.81816],[34.084911,44.819949],[34.083173,44.821258],[34.083173,44.821258],[34.083194,44.821257],[34.083176,44.821664],[34.082698,44.821859],[34.082689,44.822054],[34.082869,44.822028],[34.083153,44.822221],[34.082828,44.822695],[34.082765,44.822934],[34.082871,44.823214],[34.083018,44.823213],[34.083157,44.823126],[34.083209,44.823225],[34.083287,44.823374],[34.083369,44.823529],[34.083379,44.823547],[34.083533,44.823696],[34.083811,44.823964],[34.083951,44.824099],[34.08396,44.824223],[34.08366,44.824899],[34.08331,44.824921],[34.083093,44.82478],[34.082572,44.824747],[34.08212,44.824897],[34.081424,44.825256],[34.080943,44.825327],[34.080397,44.825113],[34.080367,44.824917],[34.080337,44.824724],[34.080202,44.824673],[34.080082,44.824721],[34.079985,44.82487],[34.079964,44.825057],[34.079465,44.82531],[34.079066,44.825237],[34.078786,44.825181],[34.078527,44.824941],[34.078211,44.825227],[34.078028,44.82521],[34.077776,44.824834],[34.077422,44.82487],[34.077285,44.825048],[34.077051,44.825074],[34.076882,44.824975],[34.076359,44.824937],[34.076104,44.824588],[34.076074,44.824548],[34.075975,44.824412],[34.075574,44.824445],[34.074386,44.824204],[34.073062,44.823935],[34.072656,44.824015],[34.072799,44.823809],[34.072807,44.823796],[34.072801,44.823789],[34.072268,44.823124],[34.072156,44.822985],[34.071684,44.822398],[34.072354,44.821692],[34.072865,44.821815],[34.073218,44.821769],[34.073643,44.821565],[34.073786,44.821369],[34.073729,44.821145],[34.073716,44.821129],[34.073041,44.820315],[34.0739,44.818288],[34.074091,44.81821],[34.074563,44.818017],[34.07459,44.818005],[34.074579,44.817986],[34.074532,44.817901],[34.074419,44.817701],[34.074395,44.817657],[34.074244,44.817389],[34.073045,44.817658],[34.072993,44.817408],[34.072384,44.814483],[34.071732,44.814159],[34.071142,44.813866],[34.072356,44.812255],[34.073531,44.813577],[34.073812,44.814293],[34.07384,44.814365],[34.073999,44.814303],[34.074019,44.814295],[34.074411,44.81414],[34.074892,44.814021],[34.07493,44.814012],[34.07589,44.813774],[34.07589,44.813772],[34.075872,44.813509],[34.075868,44.813449],[34.075853,44.813222],[34.075833,44.81315],[34.074845,44.809496],[34.074839,44.809475],[34.074775,44.809242],[34.075381,44.808652],[34.07743,44.806655],[34.078395,44.805647],[34.078457,44.805583],[34.079804,44.804175],[34.081138,44.804649],[34.083081,44.805573],[34.083661,44.805768],[34.084249,44.805048],[34.084524,44.80477],[34.084887,44.804403],[34.084903,44.804387],[34.085291,44.803995],[34.085562,44.803721],[34.085264,44.803509],[34.083773,44.802445],[34.083691,44.802386],[34.08348,44.802236],[34.083432,44.802201],[34.083243,44.802067],[34.083346,44.801898],[34.083361,44.801883],[34.083627,44.801618],[34.084502,44.800747],[34.0858,44.799456],[34.086216,44.799043],[34.086269,44.798989],[34.087418,44.797846],[34.088822,44.797027],[34.090287,44.796171],[34.091144,44.795671],[34.091224,44.795625],[34.092338,44.794974],[34.092804,44.793706],[34.093025,44.793104],[34.093029,44.793094],[34.093032,44.793084],[34.093302,44.792351],[34.092874,44.791991],[34.092747,44.791881],[34.09249,44.791656],[34.092139,44.791781],[34.090781,44.792261],[34.090351,44.792413],[34.090295,44.792433],[34.090096,44.792504],[34.089964,44.79255],[34.089891,44.792577],[34.089107,44.792857],[34.089028,44.792886],[34.08778,44.793333],[34.086505,44.792843],[34.086494,44.792838],[34.086483,44.792834],[34.086479,44.792833],[34.086454,44.792823],[34.08583,44.792583],[34.085709,44.792537],[34.082985,44.794221],[34.081338,44.795239],[34.0804,44.795744],[34.079885,44.796022],[34.079865,44.796033],[34.07937,44.796299],[34.078123,44.796971],[34.077671,44.797214],[34.077465,44.797379],[34.076982,44.797764],[34.076964,44.797779],[34.076463,44.798178],[34.076446,44.798192],[34.075349,44.799534],[34.073992,44.800514],[34.073962,44.800535],[34.073934,44.800566],[34.073782,44.800733],[34.073771,44.801013],[34.073485,44.801361],[34.07061,44.801406],[34.070741,44.80444],[34.068514,44.802431],[34.066464,44.80326],[34.067579,44.805738],[34.067607,44.805844],[34.067405,44.806133],[34.067392,44.806151],[34.065556,44.806829],[34.063303,44.807779],[34.062403,44.808158],[34.062171,44.808256],[34.062174,44.808486],[34.062198,44.810079],[34.059986,44.811746],[34.059941,44.81178],[34.058232,44.813068],[34.055099,44.810735],[34.054593,44.810271],[34.054493,44.810179],[34.053535,44.809334],[34.053263,44.809517],[34.052764,44.809853],[34.052743,44.809867],[34.052479,44.810044],[34.052637,44.810836],[34.052954,44.812422],[34.053119,44.812927],[34.053124,44.813047],[34.053159,44.813777],[34.051825,44.813796],[34.051716,44.813869],[34.051733,44.814164],[34.05178,44.81497],[34.051811,44.815507],[34.050578,44.815843],[34.050052,44.815986],[34.048178,44.813368],[34.042141,44.811869],[34.038317,44.813707],[34.037878,44.817969],[34.037516,44.818144],[34.037613,44.818253],[34.038151,44.81827],[34.038508,44.818338],[34.041671,44.823375],[34.041442,44.823476],[34.040359,44.823468],[34.039734,44.823584],[34.038645,44.824148],[34.036869,44.825068],[34.036357,44.825333],[34.035532,44.826019],[34.035253,44.826153],[34.034181,44.826418],[34.033359,44.82662],[34.033093,44.826612],[34.032659,44.826731],[34.032143,44.826771],[34.031273,44.827166],[34.031003,44.827288],[34.030628,44.827374],[34.029419,44.827413],[34.028583,44.826571],[34.028561,44.826549],[34.028539,44.826527],[34.028399,44.826386],[34.028259,44.826245],[34.028462,44.826102],[34.029107,44.825648],[34.027497,44.824733],[34.027248,44.824591],[34.027197,44.824562],[34.027173,44.824548],[34.026146,44.823964],[34.024944,44.824661],[34.024692,44.824924],[34.02445,44.825176],[34.024333,44.8253],[34.024092,44.825557],[34.023992,44.825652],[34.023977,44.825668],[34.023795,44.825995],[34.023775,44.826031],[34.023446,44.826625],[34.023351,44.826797],[34.022705,44.828093],[34.022204,44.829099],[34.022169,44.829168],[34.0217,44.830108],[34.020272,44.831086],[34.020064,44.831228],[34.018884,44.832037],[34.017839,44.83222],[34.017834,44.83222],[34.016722,44.832289],[34.015088,44.83258],[34.013455,44.832872],[34.013353,44.83297],[34.013302,44.833019],[34.012973,44.833072],[34.00932,44.833668],[34.009221,44.833684],[34.009029,44.833715],[34.009004,44.833705],[34.008902,44.833664],[34.005958,44.832494],[34.003174,44.830369],[34.002712,44.830016],[34.002187,44.829616],[34.002144,44.829583],[34.001576,44.829149],[34.000763,44.829085],[34.000726,44.829116],[33.999691,44.828787],[33.997737,44.828167],[33.997679,44.828148],[33.997222,44.828003],[33.997891,44.82664],[33.998872,44.824638],[34.001484,44.820368],[34.001494,44.820352],[34.005258,44.814411],[34.004844,44.814491],[34.004018,44.814651],[34.004315,44.813957],[34.004693,44.813073],[34.004905,44.813005],[34.005604,44.812783],[34.00757,44.812156],[34.008474,44.811867],[34.010282,44.811994],[34.010807,44.811976],[34.011065,44.811968],[34.011211,44.811963],[34.011362,44.811958],[34.011365,44.811958],[34.011403,44.811953],[34.011437,44.811949],[34.011486,44.811944],[34.011516,44.81194],[34.011671,44.811842],[34.012393,44.811388],[34.012423,44.81137],[34.012453,44.811351],[34.013441,44.810729],[34.013791,44.810509],[34.013846,44.810474],[34.013902,44.810439],[34.014159,44.810276],[34.014578,44.81001],[34.014627,44.809978],[34.01514,44.809653],[34.015434,44.809466],[34.015439,44.809463],[34.015483,44.809436],[34.0162,44.80898],[34.016836,44.808577],[34.017421,44.808206],[34.017448,44.808188],[34.017476,44.80817],[34.01929,44.806974],[34.019536,44.806813],[34.01995,44.80654],[34.020213,44.806366],[34.022733,44.804706],[34.024215,44.803729],[34.027408,44.801624],[34.028822,44.800693],[34.028881,44.800655],[34.028913,44.800635],[34.028945,44.800615],[34.029893,44.800015],[34.03088,44.799391],[34.032062,44.798643],[34.032207,44.798551],[34.034843,44.796884],[34.035367,44.796552],[34.036423,44.795884],[34.036581,44.795784],[34.036606,44.795768],[34.036631,44.795752],[34.036702,44.795708],[34.036789,44.795652],[34.037476,44.795218],[34.037819,44.795001],[34.038002,44.794885],[34.038026,44.79487],[34.038048,44.794854],[34.038392,44.794615],[34.0388,44.79433],[34.038884,44.794272],[34.040001,44.793538],[34.041357,44.792647],[34.042006,44.79222],[34.042051,44.792189],[34.042632,44.791786],[34.043621,44.791101],[34.044501,44.79049],[34.044727,44.790343],[34.044746,44.790331],[34.044765,44.790318],[34.047942,44.788247],[34.048005,44.788206],[34.048187,44.788087],[34.048198,44.78808],[34.048207,44.788074],[34.04861,44.787812],[34.04931,44.787355],[34.049352,44.787328],[34.049482,44.787243],[34.049557,44.787194],[34.05015,44.786781],[34.050246,44.786718],[34.050581,44.786494],[34.051257,44.785976],[34.051857,44.785604],[34.051878,44.785591],[34.052054,44.785481],[34.052239,44.785348],[34.052265,44.78533],[34.052286,44.785304],[34.052764,44.784742],[34.053073,44.784287],[34.054163,44.784625],[34.054193,44.784635],[34.054231,44.784595],[34.054584,44.784219],[34.054591,44.784212],[34.054599,44.784204],[34.055071,44.783702],[34.055443,44.783301],[34.055597,44.783136],[34.0567,44.782783],[34.056626,44.782301],[34.056594,44.782089],[34.055856,44.781934],[34.055518,44.781737],[34.054193,44.781621],[34.054161,44.781618],[34.054139,44.781616],[34.053538,44.780926],[34.053731,44.77959],[34.053751,44.77936],[34.053753,44.779336],[34.054014,44.776284],[34.054025,44.776017],[34.054033,44.775815],[34.05405,44.775412],[34.054052,44.775364],[34.054054,44.775339],[34.054056,44.775288],[34.05407,44.774941],[34.054104,44.774138],[34.054119,44.773783],[34.054755,44.773367],[34.055295,44.773213],[34.05554,44.773371],[34.055732,44.773322],[34.055774,44.773221],[34.056116,44.772408],[34.056608,44.771552],[34.056657,44.77155],[34.057236,44.771528],[34.057389,44.771429],[34.057542,44.771329],[34.058809,44.76977],[34.05943,44.769478],[34.059579,44.769236],[34.059584,44.769227],[34.059602,44.769226],[34.059767,44.76922],[34.060561,44.769188],[34.061017,44.769011],[34.062563,44.768092],[34.062598,44.768093],[34.063666,44.768112],[34.063919,44.767997],[34.064423,44.767769],[34.064758,44.767617],[34.064926,44.76754],[34.065328,44.767195],[34.065354,44.767173],[34.065351,44.767164],[34.065347,44.767151],[34.06513,44.766396],[34.064953,44.766272],[34.064886,44.765844],[34.063915,44.7648],[34.064128,44.764348],[34.064206,44.764182],[34.064248,44.764094],[34.064401,44.763771],[34.064719,44.763096],[34.064587,44.762722],[34.064727,44.762494],[34.064911,44.762195],[34.064948,44.761945],[34.064938,44.761322],[34.06493,44.760855],[34.064925,44.760565],[34.064826,44.760408],[34.064333,44.759618],[34.064082,44.75943],[34.064097,44.759117],[34.064121,44.758639],[34.064192,44.758494],[34.064346,44.758175],[34.064578,44.757975],[34.064709,44.758045],[34.064974,44.757923],[34.065337,44.758099],[34.065991,44.758253],[34.066112,44.758484],[34.066322,44.758548],[34.066703,44.758366],[34.066547,44.758028],[34.0668,44.757704],[34.066843,44.757674],[34.066863,44.75766],[34.066898,44.757636],[34.067088,44.757505],[34.067236,44.757565],[34.067316,44.757598],[34.068003,44.757743],[34.068532,44.757854],[34.069265,44.757318],[34.069337,44.757121],[34.069703,44.757022],[34.07018,44.75723],[34.070225,44.757249],[34.070235,44.75724],[34.0708,44.756738],[34.072707,44.756399],[34.072751,44.756366],[34.073673,44.755689],[34.074306,44.755223],[34.074207,44.755118],[34.074101,44.755005],[34.074305,44.754999],[34.074719,44.754987],[34.074887,44.754834],[34.074944,44.754781],[34.074954,44.754772],[34.074982,44.754746],[34.075311,44.754904],[34.075993,44.754607],[34.076365,44.754444],[34.077157,44.754099],[34.077166,44.754095],[34.077179,44.75409],[34.078004,44.75373],[34.078255,44.753599],[34.079576,44.752911],[34.079782,44.752607],[34.079863,44.752488],[34.079877,44.752468],[34.079889,44.752465],[34.080133,44.752401],[34.080722,44.752248],[34.080902,44.752201],[34.081005,44.752213],[34.081314,44.752247],[34.081931,44.751977],[34.082263,44.752046],[34.082611,44.751892],[34.083818,44.751581],[34.084075,44.751421],[34.08411,44.751157],[34.084032,44.750736],[34.084238,44.750539],[34.084706,44.750089],[34.084732,44.750065],[34.084756,44.750037],[34.084922,44.749844],[34.08542,44.749266],[34.085501,44.749172],[34.085693,44.748949],[34.086852,44.747918],[34.086876,44.747896],[34.088887,44.746076],[34.089127,44.745918],[34.089827,44.745459],[34.090306,44.745087],[34.090598,44.744859],[34.091001,44.744632],[34.091203,44.744518],[34.091213,44.744511],[34.091233,44.744498],[34.091568,44.744286],[34.091735,44.74418],[34.09202,44.744055],[34.09243,44.743877],[34.092489,44.743851],[34.092816,44.743467],[34.093555,44.742823],[34.095741,44.741385],[34.095819,44.741099],[34.096887,44.740348],[34.097954,44.739596],[34.098042,44.7395],[34.098306,44.739212],[34.098852,44.738927],[34.099325,44.738809],[34.099843,44.738382],[34.101275,44.737707],[34.103356,44.736594],[34.103485,44.736525],[34.103779,44.736367],[34.104342,44.736066],[34.104352,44.73606],[34.104354,44.736059],[34.104362,44.736054],[34.104649,44.735883],[34.104937,44.735711],[34.105379,44.735447],[34.106027,44.73506],[34.106358,44.734889],[34.107598,44.734247],[34.107649,44.73422],[34.107874,44.734098],[34.108342,44.733844],[34.108353,44.733838],[34.108364,44.733832],[34.108596,44.733706],[34.108605,44.733701],[34.108608,44.7337],[34.108612,44.733698],[34.10862,44.733693],[34.109243,44.733355],[34.109693,44.733111],[34.110271,44.732798],[34.111155,44.732318],[34.111491,44.732136],[34.11238,44.731654],[34.112786,44.731434],[34.113044,44.731294],[34.11417,44.730683],[34.114666,44.730457],[34.114914,44.730344],[34.115015,44.730298],[34.115217,44.730206],[34.116768,44.732799],[34.124072,44.743923],[34.124115,44.744348],[34.124185,44.74497],[34.124508,44.7453],[34.12454,44.746061],[34.125252,44.746608],[34.125247,44.746787],[34.124848,44.747302],[34.124739,44.747696],[34.125081,44.748556],[34.125551,44.749081],[34.125614,44.749313],[34.125558,44.749534],[34.125461,44.74963],[34.12517,44.749704],[34.1249,44.749975],[34.125248,44.751126],[34.12459,44.751251],[34.124534,44.751347],[34.124545,44.751514],[34.124986,44.751819],[34.125023,44.752033],[34.124935,44.752206],[34.124613,44.752436],[34.124516,44.752585],[34.124879,44.7533],[34.124804,44.753577],[34.124567,44.753808],[34.124639,44.754721],[34.12488,44.755908],[34.127593,44.75592],[34.128327,44.755865],[34.130926,44.754791],[34.138668,44.7588],[34.14424,44.761668],[34.144559,44.76156],[34.145745,44.76071],[34.147328,44.760294],[34.149575,44.759719],[34.151308,44.759464],[34.153257,44.759349],[34.153216,44.760625],[34.152372,44.761186],[34.152842,44.762658],[34.151969,44.763133],[34.150053,44.763562],[34.149463,44.765733],[34.149463,44.765733]],[[34.104239,44.777222],[34.104288,44.777705],[34.105561,44.777511],[34.105494,44.777108],[34.104239,44.777222],[34.104239,44.777222]]]}}]}