{"type":"FeatureCollection","name":"Ялтинское лесное хозяйство — участки 1 и 2","features":[{"type":"Feature","properties":{"name":"Ялтинское лесное хозяйство, участок 1","kind":"territory","area_thousand_hectares":7.392,"label_points":[[34.320299,44.652258],[34.356633,44.663961]]},"geometry":{"type":"Polygon","coordinates":[[[34.321273,44.747094],[34.321301,44.747103],[34.322937,44.746643],[34.328673,44.746514],[34.334985,44.754378],[34.33592,44.755543],[34.342282,44.757379],[34.34301,44.757588],[34.343055,44.757542],[34.343094,44.757509],[34.343138,44.757472],[34.343334,44.757301],[34.343415,44.757236],[34.343548,44.757114],[34.343801,44.756918],[34.344076,44.756679],[34.344169,44.756579],[34.344372,44.756392],[34.344397,44.756365],[34.344629,44.756078],[34.345,44.755593],[34.345263,44.755248],[34.345652,44.754725],[34.345656,44.754719],[34.345739,44.754574],[34.34618,44.753978],[34.346614,44.753386],[34.347086,44.752743],[34.347613,44.752016],[34.347962,44.751544],[34.348233,44.75118],[34.348473,44.750852],[34.348794,44.75046],[34.349159,44.750154],[34.349754,44.749763],[34.350493,44.74936],[34.350811,44.749185],[34.351284,44.748877],[34.351293,44.748867],[34.351675,44.748473],[34.351862,44.748126],[34.352021,44.747502],[34.352125,44.746765],[34.352273,44.746425],[34.352867,44.745307],[34.353179,44.744461],[34.354257,44.741532],[34.354337,44.741302],[34.354401,44.741184],[34.35448,44.741092],[34.354653,44.741012],[34.354795,44.740968],[34.355015,44.740934],[34.355216,44.740929],[34.355472,44.740966],[34.355662,44.741029],[34.355848,44.741125],[34.356276,44.74141],[34.356617,44.741685],[34.3573,44.742251],[34.35741,44.742399],[34.35747,44.742545],[34.357499,44.742715],[34.357508,44.742876],[34.357496,44.743123],[34.357063,44.745526],[34.357075,44.745708],[34.357147,44.745842],[34.357304,44.746003],[34.357583,44.746122],[34.357814,44.746149],[34.357936,44.746145],[34.358124,44.746108],[34.35833,44.745977],[34.358482,44.745816],[34.359046,44.745009],[34.359267,44.744825],[34.359557,44.744686],[34.359831,44.744575],[34.359908,44.744545],[34.361009,44.744101],[34.361485,44.743837],[34.361561,44.743785],[34.361728,44.743802],[34.362371,44.742881],[34.362369,44.74288],[34.362375,44.742871],[34.362377,44.742872],[34.362377,44.742872],[34.362354,44.742864],[34.362613,44.74246],[34.362672,44.742451],[34.363513,44.741246],[34.363443,44.741013],[34.363384,44.740817],[34.363384,44.740816],[34.363384,44.740816],[34.363384,44.740816],[34.363384,44.740816],[34.363269,44.740615],[34.363238,44.740573],[34.362986,44.740232],[34.362963,44.740087],[34.362884,44.739986],[34.36276,44.739942],[34.36244,44.739553],[34.36244,44.739553],[34.36244,44.739553],[34.362395,44.739432],[34.362494,44.739198],[34.362604,44.739071],[34.362887,44.738962],[34.363094,44.738947],[34.364895,44.739289],[34.365068,44.739349],[34.365182,44.739389],[34.365211,44.73938],[34.365309,44.739351],[34.365927,44.739356],[34.365934,44.739356],[34.367552,44.739288],[34.367553,44.739322],[34.367705,44.73932],[34.367708,44.73928],[34.368244,44.73925],[34.368529,44.739219],[34.368791,44.73916],[34.369257,44.738935],[34.369334,44.738871],[34.369426,44.738796],[34.369499,44.738705],[34.369645,44.738525],[34.369724,44.738386],[34.369775,44.738296],[34.369792,44.738245],[34.369849,44.738079],[34.369898,44.737327],[34.370057,44.73726],[34.370163,44.737216],[34.370163,44.737216],[34.370163,44.737216],[34.370156,44.737152],[34.369993,44.737181],[34.369728,44.737185],[34.369804,44.736996],[34.369923,44.736776],[34.37014,44.736526],[34.370213,44.736442],[34.370604,44.736028],[34.371875,44.734943],[34.372479,44.734387],[34.372671,44.734145],[34.372786,44.733976],[34.37289,44.73376],[34.373057,44.733291],[34.373165,44.732488],[34.373376,44.730903],[34.373375,44.730695],[34.373337,44.730524],[34.373156,44.73021],[34.372974,44.730028],[34.372731,44.729849],[34.37158,44.729141],[34.371262,44.728869],[34.371157,44.728725],[34.370843,44.728673],[34.369867,44.729462],[34.369938,44.73022],[34.370446,44.730283],[34.370534,44.730294],[34.370564,44.730315],[34.370928,44.730568],[34.371001,44.731231],[34.371009,44.731308],[34.371009,44.731308],[34.371009,44.731308],[34.371008,44.731309],[34.370435,44.731815],[34.370533,44.731965],[34.370516,44.731971],[34.370517,44.731971],[34.370526,44.732142],[34.370513,44.732147],[34.370517,44.732154],[34.370391,44.732223],[34.370105,44.73238],[34.370165,44.73248],[34.370187,44.732517],[34.370418,44.73263],[34.370648,44.732744],[34.37113,44.732811],[34.371133,44.732804],[34.371134,44.732803],[34.371344,44.732819],[34.372083,44.732875],[34.372083,44.732875],[34.372097,44.732877],[34.372097,44.732882],[34.372167,44.732887],[34.372174,44.73292],[34.372258,44.732929],[34.372233,44.733241],[34.370938,44.733223],[34.369379,44.732824],[34.369372,44.732822],[34.369201,44.732778],[34.369498,44.732318],[34.369771,44.732273],[34.369874,44.732013],[34.369992,44.732043],[34.369961,44.731922],[34.370027,44.73183],[34.369775,44.731741],[34.369533,44.731982],[34.367547,44.735001],[34.367464,44.735359],[34.36747,44.735533],[34.367387,44.735873],[34.367447,44.736231],[34.367451,44.736334],[34.367401,44.736615],[34.367419,44.736698],[34.367379,44.736839],[34.367338,44.736981],[34.367258,44.737112],[34.367188,44.737352],[34.367316,44.737604],[34.367471,44.737703],[34.367636,44.737809],[34.367766,44.737994],[34.36779,44.738024],[34.367799,44.738035],[34.367823,44.738064],[34.36785,44.738097],[34.367846,44.738253],[34.367746,44.738406],[34.367574,44.73852],[34.367219,44.738699],[34.367047,44.738758],[34.366865,44.738824],[34.366767,44.738892],[34.366759,44.738897],[34.366681,44.738956],[34.366798,44.739135],[34.366014,44.739154],[34.365352,44.739102],[34.36478,44.739057],[34.363293,44.738809],[34.363282,44.738807],[34.363189,44.738792],[34.363007,44.738763],[34.362917,44.738749],[34.362882,44.73876],[34.362764,44.738799],[34.362739,44.738807],[34.362563,44.738847],[34.362476,44.738867],[34.362226,44.739118],[34.362116,44.739406],[34.362033,44.739263],[34.361997,44.739195],[34.361995,44.739187],[34.361979,44.73912],[34.361953,44.739019],[34.361919,44.738809],[34.36185,44.738703],[34.362062,44.738556],[34.362316,44.738415],[34.362721,44.7384],[34.363283,44.738456],[34.363964,44.738521],[34.364172,44.738497],[34.36494,44.738408],[34.366484,44.738152],[34.366459,44.738091],[34.366305,44.737703],[34.366258,44.73775],[34.366233,44.737758],[34.366028,44.737356],[34.366147,44.737308],[34.366147,44.737308],[34.36613,44.737265],[34.366114,44.737259],[34.365962,44.737318],[34.365907,44.737294],[34.366039,44.737231],[34.365143,44.736892],[34.363486,44.736361],[34.363352,44.736033],[34.363205,44.735675],[34.36248,44.734986],[34.361834,44.734424],[34.360208,44.733007],[34.36026,44.732971],[34.36036,44.7329],[34.360511,44.732705],[34.36058,44.732615],[34.360905,44.732329],[34.361117,44.732143],[34.361197,44.732072],[34.361357,44.731836],[34.361365,44.731825],[34.361407,44.731665],[34.361521,44.731544],[34.361672,44.731486],[34.361827,44.731496],[34.361951,44.731476],[34.362062,44.731446],[34.362095,44.731437],[34.362119,44.731419],[34.362261,44.73131],[34.362348,44.731244],[34.362454,44.731154],[34.362685,44.730917],[34.362942,44.730736],[34.362946,44.730733],[34.363111,44.730598],[34.363331,44.730494],[34.363346,44.730483],[34.363415,44.73043],[34.363419,44.730427],[34.363427,44.730421],[34.363465,44.730286],[34.363466,44.730171],[34.363465,44.72984],[34.363465,44.729835],[34.36343,44.729843],[34.362974,44.729947],[34.362943,44.729863],[34.36288,44.729871],[34.362685,44.729443],[34.362647,44.729383],[34.362529,44.729188],[34.362156,44.728865],[34.362124,44.728837],[34.362109,44.728824],[34.361923,44.72849],[34.361957,44.72848],[34.361894,44.72838],[34.361595,44.728418],[34.361557,44.728392],[34.361502,44.728356],[34.361398,44.728245],[34.361165,44.727995],[34.361145,44.727964],[34.360983,44.727664],[34.360917,44.727451],[34.360866,44.727284],[34.360892,44.727198],[34.360921,44.727102],[34.361017,44.727035],[34.361044,44.727017],[34.361291,44.726846],[34.361461,44.726718],[34.361558,44.726645],[34.361611,44.726574],[34.361622,44.72656],[34.361665,44.726504],[34.361728,44.726422],[34.361754,44.726299],[34.361706,44.726298],[34.361615,44.726297],[34.36115,44.726215],[34.36093,44.726176],[34.360897,44.72617],[34.360779,44.726149],[34.360709,44.726094],[34.360506,44.725938],[34.36048,44.725897],[34.360386,44.725749],[34.360356,44.725729],[34.360325,44.725708],[34.360148,44.725586],[34.360258,44.725403],[34.360009,44.725246],[34.359869,44.725148],[34.359721,44.725044],[34.359665,44.725005],[34.359613,44.724968],[34.359473,44.724898],[34.358867,44.724597],[34.358288,44.724232],[34.358123,44.724175],[34.3568,44.723962],[34.356883,44.723912],[34.357257,44.723689],[34.357444,44.723577],[34.35924,44.722504],[34.360291,44.72179],[34.36056,44.721607],[34.36053,44.721587],[34.360056,44.72127],[34.361462,44.719824],[34.362025,44.71937],[34.362139,44.719033],[34.362689,44.718369],[34.363175,44.718258],[34.363795,44.718688],[34.364314,44.718257],[34.364856,44.717578],[34.365207,44.717568],[34.365608,44.717295],[34.365868,44.717357],[34.366235,44.716896],[34.366957,44.716681],[34.36717,44.716369],[34.36755,44.715854],[34.367747,44.715542],[34.367843,44.715379],[34.367939,44.715216],[34.367987,44.715126],[34.368084,44.714945],[34.368286,44.714756],[34.368697,44.714614],[34.369504,44.714449],[34.36933,44.714197],[34.369332,44.714088],[34.369559,44.7139],[34.370115,44.713518],[34.370456,44.713362],[34.370593,44.713315],[34.370525,44.713198],[34.370313,44.712976],[34.369955,44.712706],[34.36956,44.712488],[34.369061,44.712323],[34.368452,44.712232],[34.367997,44.712189],[34.367372,44.712164],[34.366665,44.712201],[34.366087,44.712298],[34.364113,44.712725],[34.363539,44.712817],[34.363169,44.712841],[34.362807,44.712836],[34.362362,44.712769],[34.362021,44.712669],[34.361613,44.712474],[34.361414,44.71229],[34.361235,44.712019],[34.36116,44.711773],[34.361188,44.711487],[34.36129,44.711227],[34.361132,44.711068],[34.361132,44.711068],[34.360785,44.711131],[34.360626,44.711113],[34.360466,44.711094],[34.359911,44.711071],[34.359393,44.711032],[34.359296,44.711067],[34.358914,44.711203],[34.358702,44.711337],[34.358429,44.711444],[34.358107,44.711583],[34.357822,44.711665],[34.357386,44.711652],[34.356832,44.711613],[34.356336,44.711625],[34.356004,44.711672],[34.355825,44.711796],[34.355747,44.712149],[34.355558,44.7123],[34.355435,44.712398],[34.35517,44.712617],[34.355051,44.712715],[34.354961,44.712812],[34.354774,44.713015],[34.354756,44.713053],[34.354613,44.71335],[34.354585,44.713627],[34.354277,44.713848],[34.353977,44.714008],[34.353916,44.714041],[34.353581,44.714248],[34.353324,44.714701],[34.353082,44.715001],[34.352604,44.715291],[34.352317,44.715496],[34.352173,44.715598],[34.352004,44.715798],[34.351835,44.715998],[34.351189,44.716492],[34.35121,44.71677],[34.351215,44.71684],[34.351219,44.716883],[34.348439,44.717057],[34.348054,44.717081],[34.347853,44.717673],[34.346501,44.718264],[34.346347,44.717914],[34.346324,44.71766],[34.346319,44.717323],[34.346174,44.716893],[34.346235,44.716608],[34.34623,44.716582],[34.346241,44.716582],[34.346252,44.716531],[34.346275,44.716491],[34.346208,44.716359],[34.346043,44.716361],[34.345805,44.716434],[34.345615,44.716603],[34.345589,44.716626],[34.34555,44.716644],[34.345431,44.716701],[34.345419,44.716706],[34.345398,44.716716],[34.345132,44.71676],[34.344865,44.716804],[34.344632,44.716823],[34.344538,44.716831],[34.344264,44.716853],[34.344228,44.716856],[34.344227,44.716856],[34.344218,44.716855],[34.344039,44.716833],[34.34385,44.71681],[34.34345,44.716722],[34.343397,44.716715],[34.343238,44.716722],[34.343174,44.716725],[34.342917,44.716826],[34.342736,44.717009],[34.342627,44.717168],[34.342343,44.717207],[34.341645,44.717259],[34.341254,44.717323],[34.340885,44.717512],[34.340466,44.717803],[34.340177,44.718069],[34.3399,44.718353],[34.33965,44.718468],[34.33939,44.718432],[34.339051,44.718285],[34.338954,44.718248],[34.338442,44.718051],[34.338259,44.718053],[34.33791,44.718055],[34.337359,44.718025],[34.337014,44.71802],[34.336545,44.717881],[34.336314,44.717795],[34.336082,44.71771],[34.335943,44.717605],[34.335855,44.717537],[34.335733,44.717397],[34.335647,44.717299],[34.335579,44.717155],[34.335589,44.716966],[34.334696,44.716369],[34.334117,44.716114],[34.333991,44.716074],[34.33396,44.716064],[34.333892,44.716043],[34.332976,44.715754],[34.331752,44.715417],[34.331736,44.715354],[34.33157,44.715314],[34.331404,44.715107],[34.331408,44.715108],[34.331534,44.715248],[34.33172,44.715295],[34.331721,44.715295],[34.331682,44.715146],[34.331705,44.714931],[34.331879,44.714771],[34.332043,44.714564],[34.332152,44.714427],[34.332442,44.714085],[34.332779,44.713854],[34.33305,44.713791],[34.3333,44.713732],[34.333499,44.713628],[34.333452,44.713564],[34.333318,44.713378],[34.333315,44.713332],[34.333314,44.713322],[34.333313,44.713302],[34.333309,44.713243],[34.333537,44.713035],[34.333947,44.712602],[34.334237,44.712268],[34.33426,44.712229],[34.334384,44.712017],[34.334371,44.71188],[34.334364,44.711815],[34.334407,44.711437],[34.33447,44.711269],[34.334491,44.711232],[34.334543,44.711143],[34.334603,44.711098],[34.334783,44.710961],[34.334963,44.710873],[34.335188,44.710763],[34.336025,44.710465],[34.336112,44.71038],[34.336225,44.710268],[34.336453,44.710102],[34.336751,44.709937],[34.337025,44.709805],[34.337182,44.709638],[34.337411,44.709422],[34.337769,44.709215],[34.337851,44.709184],[34.338096,44.709091],[34.338305,44.709012],[34.338375,44.708985],[34.338695,44.708848],[34.339182,44.708638],[34.339305,44.708532],[34.339407,44.708453],[34.339509,44.708374],[34.339868,44.708125],[34.339872,44.708119],[34.339862,44.70808],[34.339944,44.707996],[34.339984,44.707956],[34.340112,44.707769],[34.34035,44.707634],[34.340512,44.707557],[34.340717,44.707415],[34.340874,44.707348],[34.34089,44.707341],[34.340947,44.707305],[34.340957,44.707312],[34.340963,44.70731],[34.341033,44.707248],[34.341151,44.707143],[34.341264,44.707018],[34.341518,44.706906],[34.341721,44.706529],[34.341836,44.706315],[34.341824,44.706312],[34.342098,44.705775],[34.342173,44.705629],[34.342317,44.705306],[34.342334,44.705281],[34.342614,44.704865],[34.342621,44.704855],[34.342658,44.704785],[34.342774,44.704678],[34.342841,44.704606],[34.342888,44.70459],[34.342997,44.704521],[34.34333,44.704406],[34.344077,44.704195],[34.344386,44.704089],[34.344792,44.703882],[34.345161,44.703651],[34.345136,44.70362],[34.345754,44.703281],[34.345872,44.703134],[34.345817,44.703038],[34.345801,44.703009],[34.345745,44.702848],[34.345596,44.702688],[34.345432,44.702551],[34.345417,44.702416],[34.345499,44.702323],[34.345573,44.702287],[34.345646,44.702252],[34.345815,44.702202],[34.3459,44.702177],[34.345946,44.702125],[34.345996,44.702068],[34.345903,44.701949],[34.345967,44.701912],[34.345988,44.7019],[34.346226,44.701809],[34.346297,44.70179],[34.346367,44.701772],[34.346458,44.701747],[34.346491,44.701738],[34.346649,44.701728],[34.346918,44.701755],[34.347065,44.701821],[34.34711,44.70186],[34.347255,44.702016],[34.347401,44.702174],[34.347617,44.702455],[34.348045,44.703052],[34.348291,44.703402],[34.348522,44.703645],[34.348704,44.703753],[34.348773,44.703787],[34.349057,44.703849],[34.349217,44.70385],[34.34936,44.703834],[34.349453,44.703816],[34.349504,44.703793],[34.349573,44.703728],[34.349628,44.703694],[34.349794,44.703592],[34.349959,44.703389],[34.350027,44.703318],[34.350157,44.703209],[34.35024,44.702902],[34.350346,44.70254],[34.350443,44.702242],[34.350507,44.702044],[34.35063,44.701803],[34.350788,44.701494],[34.351128,44.701],[34.351573,44.700567],[34.351824,44.70035],[34.351949,44.700242],[34.352032,44.70017],[34.352197,44.700026],[34.352274,44.699944],[34.352666,44.69952],[34.352991,44.699078],[34.352728,44.698751],[34.352034,44.69769],[34.351502,44.696877],[34.351454,44.696579],[34.351442,44.696504],[34.351961,44.695789],[34.355854,44.694407],[34.357374,44.693597],[34.357333,44.692605],[34.357406,44.692499],[34.357478,44.692393],[34.357476,44.692375],[34.357441,44.691974],[34.357467,44.691943],[34.357533,44.691866],[34.357581,44.691816],[34.357629,44.691767],[34.357669,44.69178],[34.357788,44.69182],[34.357995,44.691849],[34.358204,44.691797],[34.358527,44.691733],[34.358908,44.691642],[34.359133,44.691739],[34.359342,44.691673],[34.359665,44.691609],[34.360176,44.691614],[34.360436,44.691708],[34.361133,44.691958],[34.361925,44.692235],[34.361976,44.692038],[34.361922,44.692024],[34.361876,44.691926],[34.362015,44.691886],[34.362025,44.691848],[34.362238,44.691608],[34.362848,44.691398],[34.363417,44.691336],[34.363948,44.691247],[34.364652,44.691024],[34.365317,44.690896],[34.36581,44.690847],[34.366133,44.690742],[34.36638,44.690704],[34.366621,44.69077],[34.366648,44.690763],[34.366655,44.690779],[34.366738,44.690802],[34.367247,44.690861],[34.367647,44.690757],[34.36818,44.690573],[34.368923,44.690324],[34.369723,44.690008],[34.370299,44.689623],[34.370506,44.689073],[34.370514,44.689041],[34.370544,44.688921],[34.370639,44.68891],[34.370671,44.688906],[34.372509,44.688541],[34.372767,44.688489],[34.373543,44.68831],[34.374202,44.688158],[34.375883,44.687855],[34.376474,44.687717],[34.376308,44.687342],[34.376214,44.687057],[34.376401,44.68688],[34.37641,44.686694],[34.376378,44.686462],[34.376678,44.686362],[34.376978,44.686263],[34.377135,44.686382],[34.377292,44.686501],[34.377514,44.686499],[34.377727,44.686449],[34.378006,44.686362],[34.378689,44.68614],[34.379272,44.686136],[34.379424,44.686335],[34.379682,44.686424],[34.380185,44.686247],[34.380506,44.686175],[34.380872,44.686125],[34.380923,44.686206],[34.381101,44.686167],[34.382572,44.685462],[34.382941,44.685191],[34.384613,44.684376],[34.385364,44.68388],[34.385608,44.683873],[34.386152,44.683999],[34.386451,44.68387],[34.386884,44.683568],[34.387021,44.683472],[34.387733,44.682892],[34.387791,44.682627],[34.387767,44.68226],[34.388924,44.681793],[34.389181,44.681674],[34.389929,44.681297],[34.390507,44.681005],[34.390631,44.680959],[34.390816,44.680931],[34.390992,44.680925],[34.391661,44.68096],[34.391935,44.680978],[34.392168,44.680968],[34.392402,44.680951],[34.39263,44.680923],[34.392865,44.680903],[34.392944,44.680899],[34.393175,44.680888],[34.393724,44.680899],[34.394003,44.680886],[34.39417,44.680873],[34.394302,44.680844],[34.395093,44.680641],[34.396674,44.680093],[34.396794,44.680032],[34.397211,44.679881],[34.397663,44.679722],[34.398221,44.679612],[34.398786,44.67944],[34.399573,44.679303],[34.399147,44.679118],[34.398848,44.678992],[34.39846,44.678682],[34.398302,44.678449],[34.39827,44.67838],[34.398202,44.678233],[34.398174,44.678041],[34.398172,44.678027],[34.398175,44.677845],[34.398138,44.677646],[34.397939,44.677677],[34.397739,44.677708],[34.39729,44.677888],[34.39712,44.677633],[34.39643,44.6778],[34.395905,44.677912],[34.394448,44.678272],[34.393469,44.6785],[34.392416,44.678759],[34.392349,44.678902],[34.393003,44.680717],[34.392826,44.680732],[34.392826,44.680738],[34.392486,44.680761],[34.392479,44.680761],[34.391837,44.680815],[34.39168,44.680805],[34.391667,44.680808],[34.391662,44.680863],[34.390901,44.680845],[34.390902,44.680841],[34.390923,44.680763],[34.3907,44.680799],[34.389969,44.681106],[34.388131,44.679968],[34.387994,44.680065],[34.387926,44.680023],[34.38783,44.680046],[34.387407,44.680205],[34.387142,44.680348],[34.387098,44.680371],[34.387058,44.680391],[34.386813,44.680515],[34.386622,44.680546],[34.38655,44.680636],[34.386464,44.680733],[34.386224,44.680877],[34.385986,44.680967],[34.385562,44.681192],[34.385346,44.681277],[34.38519,44.68132],[34.384905,44.681442],[34.384789,44.681522],[34.384551,44.681635],[34.384328,44.681703],[34.384152,44.681712],[34.383426,44.682108],[34.38293,44.682506],[34.382399,44.682893],[34.381818,44.683296],[34.381809,44.683372],[34.38174,44.683426],[34.381545,44.683222],[34.38146,44.683075],[34.38152,44.682852],[34.381611,44.682667],[34.381827,44.682497],[34.381984,44.682422],[34.381947,44.682298],[34.380631,44.68134],[34.380234,44.681553],[34.379479,44.681948],[34.379301,44.682005],[34.379168,44.682047],[34.378811,44.682113],[34.378213,44.682177],[34.377616,44.682226],[34.376995,44.682328],[34.376758,44.682359],[34.376604,44.682461],[34.376476,44.682367],[34.376324,44.682316],[34.376205,44.682308],[34.376029,44.682326],[34.375852,44.682327],[34.375849,44.682327],[34.375824,44.68232],[34.375731,44.682294],[34.375589,44.682195],[34.375475,44.682019],[34.37528,44.681797],[34.375061,44.681621],[34.374889,44.681416],[34.374799,44.681215],[34.374766,44.680928],[34.374739,44.680671],[34.374778,44.680552],[34.374797,44.680495],[34.374888,44.680248],[34.374995,44.679959],[34.374985,44.679895],[34.374912,44.679819],[34.374786,44.679651],[34.374725,44.679578],[34.374683,44.67953],[34.374531,44.679516],[34.373757,44.67935],[34.373623,44.679329],[34.374106,44.675084],[34.373102,44.674707],[34.373009,44.674643],[34.37299,44.67463],[34.372729,44.674482],[34.372353,44.674199],[34.372417,44.673855],[34.372382,44.673807],[34.372401,44.673479],[34.372486,44.673486],[34.372486,44.673486],[34.372486,44.673486],[34.372494,44.673441],[34.372521,44.673297],[34.37463,44.672912],[34.374659,44.673047],[34.374542,44.673453],[34.374801,44.673738],[34.375735,44.67374],[34.376693,44.673742],[34.376545,44.672844],[34.378372,44.672732],[34.378557,44.672568],[34.378498,44.672218],[34.379078,44.672202],[34.379175,44.672047],[34.379956,44.671993],[34.381302,44.672975],[34.381303,44.672976],[34.382552,44.672969],[34.382542,44.672547],[34.38322,44.672439],[34.383123,44.672063],[34.385555,44.671988],[34.385578,44.67217],[34.385586,44.672231],[34.386144,44.672238],[34.387794,44.672258],[34.388561,44.672154],[34.391399,44.672184],[34.391126,44.671994],[34.391058,44.672076],[34.390911,44.671981],[34.390837,44.671819],[34.390964,44.671775],[34.391173,44.6718],[34.391301,44.671712],[34.391634,44.671724],[34.391643,44.671674],[34.391693,44.671553],[34.391807,44.671573],[34.3919,44.671282],[34.391731,44.671306],[34.391746,44.67125],[34.39155,44.671338],[34.391423,44.671348],[34.391247,44.671438],[34.391154,44.671426],[34.390495,44.671345],[34.389849,44.671265],[34.38956,44.671229],[34.389572,44.67106],[34.389331,44.670984],[34.389053,44.67081],[34.38906,44.670655],[34.388522,44.670322],[34.387827,44.669892],[34.387214,44.669625],[34.385445,44.668954],[34.38545,44.6687],[34.386529,44.668517],[34.386618,44.668528],[34.386797,44.668551],[34.386853,44.668446],[34.386908,44.668342],[34.387463,44.668353],[34.38775,44.667884],[34.38795,44.667739],[34.38823,44.667627],[34.38867,44.667567],[34.389223,44.667648],[34.388823,44.668428],[34.389168,44.668476],[34.389859,44.668571],[34.39156,44.669037],[34.391933,44.668728],[34.392241,44.668559],[34.392726,44.668687],[34.393906,44.669],[34.39456,44.669177],[34.394238,44.668506],[34.39411,44.668334],[34.393983,44.668205],[34.393799,44.668074],[34.393648,44.667974],[34.393455,44.667873],[34.39327,44.667799],[34.393149,44.667759],[34.393033,44.667735],[34.392932,44.667713],[34.39265,44.667673],[34.392514,44.667659],[34.392504,44.667658],[34.392049,44.66761],[34.39143,44.667546],[34.390661,44.667454],[34.390015,44.66736],[34.389699,44.667293],[34.38956,44.667264],[34.388665,44.667023],[34.388185,44.666863],[34.387994,44.666776],[34.387824,44.666682],[34.387713,44.666592],[34.387574,44.666438],[34.387487,44.666301],[34.387439,44.666185],[34.387402,44.665942],[34.387392,44.665697],[34.387333,44.663432],[34.387326,44.663135],[34.387309,44.662944],[34.387304,44.662943],[34.387304,44.662943],[34.387304,44.662943],[34.387177,44.662287],[34.385528,44.659303],[34.385475,44.659211],[34.385475,44.659211],[34.385213,44.658756],[34.384949,44.658512],[34.384681,44.658273],[34.384215,44.658065],[34.383236,44.657852],[34.382598,44.657673],[34.382187,44.657557],[34.381765,44.657309],[34.381587,44.657241],[34.381545,44.657201],[34.38139,44.657058],[34.381092,44.65727],[34.380182,44.657995],[34.379456,44.657607],[34.379724,44.657175],[34.379561,44.656359],[34.379541,44.656325],[34.379382,44.656349],[34.379075,44.65579],[34.379211,44.655753],[34.379206,44.655744],[34.379611,44.655626],[34.379779,44.655544],[34.379288,44.655057],[34.379012,44.654728],[34.378813,44.654785],[34.378692,44.654816],[34.378692,44.654824],[34.378661,44.654828],[34.378629,44.654832],[34.378431,44.654883],[34.378226,44.65495],[34.378174,44.654966],[34.378051,44.654807],[34.378089,44.654787],[34.378088,44.654785],[34.378104,44.654778],[34.378127,44.654766],[34.378213,44.65472],[34.378238,44.654711],[34.378238,44.654711],[34.378159,44.654672],[34.378311,44.654518],[34.378414,44.654529],[34.378414,44.654529],[34.378471,44.654418],[34.37852,44.654323],[34.37853,44.654304],[34.378549,44.654088],[34.378882,44.65404],[34.379049,44.654011],[34.379143,44.653622],[34.379601,44.652803],[34.37964,44.652781],[34.379701,44.652674],[34.379882,44.65232],[34.379963,44.652098],[34.380007,44.65195],[34.38004,44.651752],[34.380044,44.651463],[34.38001,44.651224],[34.379972,44.651051],[34.37987,44.650762],[34.379708,44.650434],[34.375301,44.643326],[34.37506,44.642983],[34.374925,44.642802],[34.374995,44.642774],[34.374384,44.642192],[34.373964,44.641867],[34.373743,44.641827],[34.373644,44.641892],[34.373735,44.641953],[34.373735,44.641953],[34.373759,44.641958],[34.373265,44.64222],[34.374115,44.642732],[34.373585,44.642975],[34.372902,44.642753],[34.372405,44.642892],[34.372151,44.642902],[34.371913,44.642986],[34.371947,44.64291],[34.371782,44.642916],[34.371553,44.642817],[34.371287,44.642803],[34.371128,44.642842],[34.370943,44.642887],[34.370727,44.642928],[34.370619,44.642958],[34.370518,44.642795],[34.370333,44.642637],[34.370125,44.642575],[34.370077,44.642561],[34.369965,44.64254],[34.369901,44.642535],[34.369676,44.642518],[34.369447,44.64273],[34.369297,44.642671],[34.368951,44.642713],[34.368479,44.642764],[34.368134,44.642749],[34.367649,44.642677],[34.367243,44.642515],[34.367073,44.642447],[34.367003,44.64243],[34.366698,44.642354],[34.365826,44.642021],[34.365644,44.641901],[34.365411,44.641711],[34.365333,44.64159],[34.365177,44.641499],[34.365167,44.64147],[34.365154,44.641434],[34.365036,44.640849],[34.364865,44.640576],[34.364762,44.64046],[34.364736,44.640377],[34.36471,44.640294],[34.364971,44.639972],[34.365097,44.63973],[34.36495,44.639458],[34.365172,44.639359],[34.365269,44.639215],[34.365279,44.639195],[34.365271,44.63919],[34.365384,44.638986],[34.365319,44.638595],[34.36539,44.638526],[34.3654,44.638475],[34.365501,44.638332],[34.366182,44.63801],[34.366439,44.637961],[34.366658,44.637974],[34.366786,44.637863],[34.366933,44.637585],[34.366997,44.637473],[34.366984,44.637372],[34.366837,44.637327],[34.366796,44.637314],[34.366435,44.637344],[34.366401,44.637339],[34.366106,44.637296],[34.365826,44.637193],[34.365528,44.637094],[34.365486,44.636932],[34.365378,44.636819],[34.365328,44.636773],[34.365317,44.636762],[34.365193,44.636674],[34.365071,44.636548],[34.364828,44.636327],[34.36469,44.636289],[34.364618,44.636226],[34.364445,44.63612],[34.364317,44.635952],[34.364262,44.635795],[34.364257,44.63562],[34.363942,44.635684],[34.363572,44.635322],[34.363034,44.634756],[34.363468,44.634583],[34.363181,44.63432],[34.363309,44.634149],[34.3635,44.634073],[34.363587,44.634074],[34.363681,44.634032],[34.363477,44.633843],[34.36292,44.633339],[34.362656,44.6331],[34.362388,44.63289],[34.362091,44.632676],[34.362199,44.632567],[34.361562,44.632216],[34.361083,44.632068],[34.360819,44.63198],[34.3599,44.631617],[34.359667,44.631554],[34.359525,44.631516],[34.359448,44.6317],[34.359485,44.631792],[34.359429,44.631851],[34.359342,44.631883],[34.359364,44.631999],[34.35925,44.632101],[34.359038,44.632248],[34.35902,44.632263],[34.358706,44.632463],[34.358297,44.632478],[34.357871,44.632375],[34.357662,44.6323],[34.357482,44.632235],[34.35721,44.632199],[34.357083,44.632222],[34.357201,44.632191],[34.357276,44.632106],[34.357277,44.632105],[34.357116,44.632085],[34.356478,44.632205],[34.356176,44.632298],[34.355966,44.632057],[34.355964,44.631929],[34.356158,44.63082],[34.356223,44.630568],[34.356011,44.630499],[34.355527,44.630037],[34.355371,44.629768],[34.35317,44.62942],[34.354674,44.628485],[34.35455,44.628151],[34.354506,44.628033],[34.354533,44.627773],[34.354579,44.627335],[34.354382,44.62742],[34.353966,44.627563],[34.353901,44.627711],[34.353835,44.627796],[34.353675,44.627793],[34.353514,44.62779],[34.352113,44.627515],[34.352006,44.626913],[34.352359,44.625975],[34.352466,44.625976],[34.352569,44.625976],[34.352755,44.62596],[34.35355,44.625945],[34.353532,44.62482],[34.353543,44.624688],[34.353633,44.624233],[34.353651,44.624143],[34.353725,44.623582],[34.353587,44.623273],[34.353714,44.623266],[34.3539,44.623255],[34.354092,44.622965],[34.354576,44.622542],[34.354576,44.622542],[34.354576,44.622542],[34.35498,44.622543],[34.355168,44.620356],[34.355144,44.620313],[34.355138,44.620239],[34.355131,44.620165],[34.355134,44.619981],[34.355212,44.618891],[34.355225,44.618673],[34.355224,44.618528],[34.355202,44.618549],[34.355228,44.618212],[34.355247,44.618027],[34.355306,44.617537],[34.355344,44.61735],[34.355113,44.617119],[34.355182,44.617],[34.35496,44.616909],[34.35469,44.616628],[34.354157,44.616012],[34.353909,44.615768],[34.35374,44.615699],[34.353562,44.61568],[34.353251,44.615699],[34.352939,44.61578],[34.352576,44.615924],[34.352244,44.616135],[34.352002,44.616372],[34.351924,44.616548],[34.35191,44.616784],[34.352017,44.617487],[34.35199,44.617748],[34.351969,44.617785],[34.351896,44.617913],[34.351762,44.618],[34.351597,44.618084],[34.351407,44.618136],[34.351189,44.618148],[34.350977,44.618114],[34.350852,44.618095],[34.350712,44.617982],[34.35057,44.617816],[34.350371,44.617403],[34.350272,44.617129],[34.35014,44.616755],[34.349961,44.616557],[34.349393,44.615978],[34.34904,44.615583],[34.34885,44.615253],[34.348776,44.615089],[34.348754,44.61511],[34.348215,44.615628],[34.346569,44.614646],[34.346392,44.614527],[34.34639,44.614528],[34.346238,44.614454],[34.345731,44.614106],[34.345741,44.614088],[34.345659,44.614033],[34.344647,44.61334],[34.344577,44.61333],[34.344516,44.613343],[34.344474,44.613366],[34.344414,44.613377],[34.344399,44.613359],[34.344377,44.613362],[34.344354,44.613326],[34.344385,44.61329],[34.344401,44.613253],[34.344376,44.613213],[34.344271,44.613114],[34.34421,44.61307],[34.344171,44.613046],[34.34417,44.613041],[34.344144,44.613023],[34.344033,44.612596],[34.344017,44.612575],[34.343994,44.612547],[34.343821,44.612333],[34.343668,44.612155],[34.343363,44.611879],[34.342559,44.611393],[34.342559,44.611393],[34.342559,44.611393],[34.34155,44.611207],[34.341548,44.611207],[34.341427,44.61126],[34.341336,44.61126],[34.341356,44.611202],[34.341358,44.611192],[34.340998,44.61119],[34.340903,44.611178],[34.340785,44.610809],[34.34084,44.610722],[34.34101,44.610681],[34.341041,44.610647],[34.341416,44.610567],[34.341507,44.610573],[34.341539,44.610598],[34.3421,44.610589],[34.342132,44.610155],[34.342142,44.610125],[34.342128,44.610026],[34.341986,44.609969],[34.341948,44.609986],[34.341935,44.609989],[34.341854,44.61001],[34.341785,44.609931],[34.341751,44.609892],[34.341746,44.609574],[34.341742,44.609541],[34.34172,44.609354],[34.341849,44.609142],[34.34195,44.609031],[34.342001,44.608975],[34.342158,44.608875],[34.342291,44.608791],[34.342557,44.608545],[34.3427,44.608439],[34.342619,44.608309],[34.342522,44.608155],[34.342472,44.608098],[34.342442,44.608064],[34.342444,44.607984],[34.342458,44.607913],[34.342337,44.607752],[34.342001,44.607337],[34.341689,44.607177],[34.341416,44.607129],[34.341055,44.607117],[34.340565,44.607041],[34.340331,44.606996],[34.34,44.606982],[34.339568,44.606862],[34.339184,44.606742],[34.338803,44.606543],[34.338457,44.606415],[34.338226,44.606449],[34.33812,44.606465],[34.337908,44.606486],[34.337721,44.606505],[34.337488,44.606554],[34.337049,44.606582],[34.336835,44.60651],[34.336562,44.606317],[34.336489,44.606248],[34.336471,44.606235],[34.336399,44.606162],[34.336175,44.60595],[34.335522,44.605473],[34.335011,44.605036],[34.334563,44.604624],[34.334054,44.604072],[34.333681,44.603941],[34.333031,44.603757],[34.332115,44.603412],[34.331857,44.603346],[34.331359,44.603168],[34.33111,44.603079],[34.33048,44.603036],[34.329849,44.602992],[34.32951,44.602906],[34.3294,44.602405],[34.329388,44.602373],[34.329356,44.602263],[34.329184,44.602312],[34.329057,44.602426],[34.328876,44.602762],[34.328705,44.603249],[34.328892,44.603565],[34.328853,44.603823],[34.328784,44.603971],[34.328697,44.604107],[34.328217,44.605148],[34.327889,44.604959],[34.327515,44.604732],[34.327565,44.604969],[34.32757,44.605168],[34.327468,44.605452],[34.327434,44.605501],[34.327434,44.605501],[34.327469,44.605501],[34.327456,44.605518],[34.32743,44.605543],[34.327355,44.605617],[34.327303,44.605692],[34.327173,44.605794],[34.32708,44.605885],[34.327124,44.605835],[34.327121,44.605835],[34.324468,44.606023],[34.323812,44.605483],[34.323785,44.605517],[34.321391,44.603753],[34.321361,44.603732],[34.320312,44.602957],[34.320303,44.60294],[34.320399,44.602935],[34.320246,44.602825],[34.319709,44.601714],[34.316253,44.600053],[34.314843,44.599361],[34.314859,44.599144],[34.314821,44.598693],[34.314645,44.598132],[34.314508,44.598005],[34.314288,44.597894],[34.31395,44.597866],[34.313668,44.597955],[34.313184,44.598167],[34.312713,44.59832],[34.312479,44.598385],[34.311938,44.598538],[34.311628,44.598584],[34.311317,44.598631],[34.310943,44.598644],[34.31058,44.598633],[34.310544,44.598632],[34.310511,44.598631],[34.309466,44.598812],[34.308891,44.599015],[34.308306,44.599364],[34.308229,44.599447],[34.308096,44.599591],[34.307686,44.600087],[34.307617,44.600171],[34.30759,44.599728],[34.307541,44.599485],[34.307554,44.599323],[34.307561,44.599242],[34.307479,44.598991],[34.307564,44.598882],[34.307929,44.598513],[34.30795,44.598405],[34.307944,44.598063],[34.307993,44.597936],[34.308042,44.59781],[34.308023,44.597758],[34.307965,44.597603],[34.307979,44.59756],[34.307988,44.597531],[34.308241,44.597353],[34.308375,44.597259],[34.308403,44.597225],[34.308547,44.59705],[34.308588,44.596974],[34.308628,44.596898],[34.308562,44.596808],[34.308552,44.596773],[34.308507,44.596615],[34.308513,44.59634],[34.308655,44.596216],[34.309622,44.595783],[34.310202,44.595552],[34.310459,44.59545],[34.310871,44.595262],[34.311499,44.59486],[34.3117,44.594753],[34.312067,44.594515],[34.312102,44.594404],[34.312244,44.59408],[34.311878,44.594037],[34.311078,44.594271],[34.310202,44.594542],[34.309324,44.594946],[34.309275,44.594888],[34.309241,44.594846],[34.309145,44.594727],[34.309325,44.594652],[34.30955,44.594558],[34.309784,44.594419],[34.310098,44.594311],[34.310317,44.594055],[34.310498,44.593878],[34.310523,44.593854],[34.310662,44.593718],[34.311809,44.593322],[34.312196,44.593005],[34.312329,44.592887],[34.312043,44.592739],[34.31187,44.592574],[34.311631,44.592298],[34.311159,44.591926],[34.311123,44.591775],[34.311088,44.591594],[34.311045,44.591476],[34.311031,44.591437],[34.310935,44.591366],[34.310838,44.591295],[34.31073,44.591176],[34.310707,44.591085],[34.310683,44.590995],[34.310681,44.590905],[34.31068,44.590848],[34.310679,44.590792],[34.310538,44.590695],[34.310159,44.590663],[34.310117,44.590578],[34.310074,44.590493],[34.310027,44.590401],[34.309865,44.590173],[34.30969,44.590038],[34.309488,44.589903],[34.309303,44.589834],[34.309126,44.589819],[34.308986,44.589824],[34.308939,44.589897],[34.308934,44.590123],[34.308885,44.590236],[34.308743,44.590361],[34.308554,44.590492],[34.308394,44.590557],[34.308123,44.590594],[34.30804,44.590593],[34.307984,44.590593],[34.307966,44.590585],[34.307966,44.590586],[34.307967,44.590599],[34.307926,44.590614],[34.307888,44.590552],[34.307854,44.590538],[34.307782,44.590411],[34.307776,44.590373],[34.307738,44.590311],[34.30769,44.590235],[34.307716,44.58988],[34.307716,44.58988],[34.307691,44.589844],[34.30772,44.589824],[34.30772,44.589824],[34.307721,44.589806],[34.307749,44.589801],[34.307751,44.589804],[34.307751,44.589805],[34.308084,44.589762],[34.308332,44.589738],[34.308579,44.589714],[34.308813,44.589669],[34.308972,44.589624],[34.309022,44.589485],[34.308998,44.589239],[34.308873,44.588998],[34.308802,44.588797],[34.308796,44.588677],[34.308919,44.588559],[34.309079,44.5885],[34.309169,44.588511],[34.30932,44.58853],[34.309618,44.588553],[34.309795,44.588541],[34.310095,44.588458],[34.31032,44.588394],[34.310544,44.588383],[34.310762,44.588361],[34.310602,44.58827],[34.310334,44.588154],[34.310039,44.588031],[34.309928,44.58797],[34.30994,44.587955],[34.310083,44.587771],[34.310455,44.58742],[34.311256,44.586376],[34.311589,44.586176],[34.310413,44.584888],[34.310143,44.584595],[34.310081,44.584314],[34.310149,44.584032],[34.310137,44.583468],[34.310112,44.583284],[34.310112,44.583284],[34.310105,44.583293],[34.310085,44.583318],[34.310057,44.582917],[34.310036,44.582846],[34.309999,44.582721],[34.309893,44.582534],[34.309826,44.582444],[34.309756,44.582386],[34.309766,44.582363],[34.309765,44.582362],[34.309935,44.581937],[34.309961,44.5819],[34.309961,44.5819],[34.309998,44.581811],[34.309963,44.581764],[34.30995,44.581701],[34.309954,44.58164],[34.309989,44.58158],[34.310027,44.581531],[34.310092,44.581457],[34.310177,44.58137],[34.31025,44.581273],[34.310323,44.581165],[34.310404,44.581018],[34.31049,44.580867],[34.310573,44.580716],[34.310606,44.580632],[34.310621,44.580555],[34.310626,44.580447],[34.310613,44.580342],[34.310595,44.580212],[34.310567,44.580087],[34.310526,44.57996],[34.310501,44.579843],[34.310474,44.57978],[34.310415,44.579687],[34.310328,44.57962],[34.310256,44.579585],[34.310216,44.579565],[34.310069,44.579577],[34.309975,44.579616],[34.309904,44.579674],[34.309858,44.579734],[34.309794,44.579792],[34.309736,44.579857],[34.309649,44.579937],[34.309547,44.580027],[34.309451,44.580073],[34.309355,44.580111],[34.309302,44.580123],[34.309212,44.580121],[34.309157,44.580113],[34.309094,44.580082],[34.309047,44.58006],[34.309006,44.580036],[34.308959,44.580002],[34.308885,44.579919],[34.308825,44.579751],[34.308787,44.579684],[34.308752,44.579578],[34.308679,44.579489],[34.308566,44.579401],[34.308432,44.579342],[34.308187,44.579309],[34.307949,44.579291],[34.307705,44.579269],[34.307456,44.579272],[34.307286,44.579298],[34.307177,44.579331],[34.30708,44.579367],[34.306951,44.579403],[34.306812,44.57945],[34.306716,44.579466],[34.306646,44.579475],[34.306586,44.579477],[34.306534,44.579468],[34.306482,44.579458],[34.306399,44.57941],[34.306343,44.579355],[34.306339,44.579269],[34.306358,44.57918],[34.30639,44.579106],[34.306429,44.57904],[34.306474,44.578982],[34.306524,44.578922],[34.306579,44.578867],[34.306632,44.578828],[34.30671,44.57877],[34.306791,44.57872],[34.306892,44.57865],[34.306956,44.578593],[34.307007,44.578531],[34.307051,44.578468],[34.307207,44.578201],[34.307313,44.578034],[34.30743,44.577896],[34.307492,44.577834],[34.307566,44.57778],[34.307627,44.577742],[34.30772,44.577696],[34.307848,44.577658],[34.307994,44.577639],[34.308131,44.577636],[34.308285,44.577622],[34.308366,44.577604],[34.308443,44.577575],[34.308507,44.577544],[34.308583,44.577506],[34.308621,44.577453],[34.308797,44.57726],[34.308865,44.57719],[34.3089,44.57714],[34.308936,44.577087],[34.308963,44.577047],[34.30897,44.576964],[34.308968,44.576868],[34.308933,44.576768],[34.308857,44.576667],[34.308734,44.576551],[34.308518,44.576354],[34.308415,44.576246],[34.308278,44.576124],[34.308245,44.57609],[34.308164,44.576018],[34.308058,44.575971],[34.307937,44.575902],[34.307818,44.575861],[34.307691,44.575814],[34.307432,44.575728],[34.307147,44.575625],[34.306826,44.575489],[34.306651,44.575402],[34.306536,44.575356],[34.306427,44.575293],[34.306343,44.575235],[34.306249,44.575144],[34.306177,44.575031],[34.306106,44.574895],[34.306055,44.574751],[34.305977,44.574512],[34.305948,44.574422],[34.30582,44.574214],[34.305583,44.573807],[34.305468,44.573626],[34.305314,44.573366],[34.305246,44.573306],[34.305247,44.573141],[34.305362,44.573005],[34.305388,44.572863],[34.305428,44.572634],[34.30544,44.572576],[34.305636,44.572418],[34.305637,44.572361],[34.305441,44.572234],[34.305576,44.571813],[34.305568,44.57181],[34.305596,44.571619],[34.305114,44.571327],[34.304853,44.571168],[34.304563,44.571305],[34.304506,44.571264],[34.30416,44.571503],[34.30306,44.572037],[34.301725,44.572683],[34.30164,44.572725],[34.301569,44.572721],[34.301504,44.572721],[34.30138,44.572847],[34.301325,44.572876],[34.30093,44.573065],[34.300869,44.573192],[34.300724,44.573166],[34.300455,44.573298],[34.300164,44.573265],[34.299993,44.573245],[34.299568,44.573095],[34.299561,44.573198],[34.298886,44.573122],[34.298481,44.573079],[34.298327,44.573017],[34.298249,44.573052],[34.298095,44.573035],[34.298149,44.57311],[34.298149,44.57311],[34.298149,44.57311],[34.298081,44.573203],[34.298127,44.573252],[34.298039,44.57326],[34.297984,44.573335],[34.298027,44.573431],[34.297939,44.573549],[34.297902,44.573563],[34.297827,44.573592],[34.297758,44.573621],[34.297669,44.573658],[34.297537,44.573775],[34.29722,44.574164],[34.296688,44.574102],[34.296682,44.574119],[34.296716,44.574278],[34.296753,44.574355],[34.296759,44.574511],[34.29667,44.574614],[34.296466,44.574755],[34.296455,44.574767],[34.296445,44.574765],[34.296228,44.574949],[34.296195,44.57528],[34.296276,44.575494],[34.296273,44.57587],[34.296511,44.575748],[34.296749,44.575627],[34.298162,44.575263],[34.299051,44.575576],[34.297591,44.576972],[34.297158,44.57714],[34.296672,44.577245],[34.295941,44.57706],[34.296073,44.576309],[34.295122,44.575873],[34.294866,44.575715],[34.294158,44.575505],[34.29436,44.575226],[34.294505,44.574918],[34.294564,44.574897],[34.294931,44.574903],[34.295352,44.574871],[34.29553,44.574475],[34.295521,44.574041],[34.295437,44.573747],[34.295313,44.573671],[34.295508,44.573667],[34.295448,44.573654],[34.295242,44.57355],[34.294727,44.573307],[34.294301,44.5733],[34.294302,44.573268],[34.294277,44.573267],[34.294276,44.5733],[34.293809,44.573292],[34.292393,44.572552],[34.292061,44.572378],[34.291129,44.570752],[34.289548,44.570348],[34.289511,44.570335],[34.289086,44.570865],[34.288993,44.571102],[34.289087,44.571255],[34.288915,44.571532],[34.288804,44.572072],[34.28849,44.572735],[34.288234,44.573207],[34.287912,44.573493],[34.287591,44.573561],[34.286582,44.574088],[34.286284,44.573436],[34.286264,44.573195],[34.285899,44.573228],[34.285482,44.573476],[34.285257,44.573601],[34.285243,44.573596],[34.285046,44.573517],[34.284964,44.573484],[34.284952,44.573479],[34.284948,44.573478],[34.284948,44.573477],[34.284812,44.573152],[34.284352,44.573193],[34.283284,44.573316],[34.282242,44.573326],[34.281107,44.57338],[34.279973,44.57339],[34.278708,44.573428],[34.276828,44.573486],[34.276772,44.574038],[34.276807,44.574326],[34.276839,44.574592],[34.276768,44.57512],[34.276772,44.575778],[34.276887,44.576948],[34.276881,44.577822],[34.277092,44.579141],[34.2771,44.57919],[34.277122,44.579322],[34.277114,44.579413],[34.276989,44.581004],[34.277252,44.584348],[34.277533,44.586986],[34.277603,44.587637],[34.277716,44.59023],[34.278242,44.595195],[34.278107,44.596239],[34.277978,44.596902],[34.277935,44.597122],[34.277955,44.597176],[34.278021,44.597352],[34.277931,44.597534],[34.27791,44.597575],[34.277889,44.597619],[34.277335,44.59758],[34.277308,44.597578],[34.276363,44.597564],[34.275093,44.59774],[34.274603,44.597839],[34.27356,44.598048],[34.2721,44.598349],[34.271111,44.598451],[34.270894,44.598493],[34.270217,44.598623],[34.269474,44.598827],[34.268835,44.59899],[34.26745,44.59887],[34.267595,44.601191],[34.267778,44.601551],[34.268089,44.602161],[34.267874,44.602319],[34.267511,44.602584],[34.267882,44.602851],[34.269667,44.606047],[34.270598,44.606703],[34.271199,44.607126],[34.272169,44.607809],[34.274091,44.609161],[34.27424,44.609266],[34.274985,44.60979],[34.275576,44.608617],[34.278424,44.610087],[34.279909,44.610854],[34.281275,44.611559],[34.281725,44.611792],[34.282383,44.612132],[34.283489,44.612735],[34.283792,44.6129],[34.283975,44.613],[34.286693,44.614481],[34.287542,44.614944],[34.29159,44.61715],[34.295588,44.618433],[34.29689,44.618851],[34.29711,44.618922],[34.299735,44.620116],[34.303196,44.622199],[34.306082,44.623441],[34.314173,44.62942],[34.31477,44.633765],[34.314973,44.635239],[34.315116,44.636284],[34.315288,44.636878],[34.315424,44.637346],[34.315941,44.639133],[34.316389,44.640682],[34.316711,44.641796],[34.316804,44.642118],[34.317506,44.644543],[34.317635,44.644989],[34.317597,44.64574],[34.317475,44.6481],[34.318379,44.649609],[34.318974,44.652041],[34.320988,44.65381],[34.321413,44.654184],[34.322244,44.654541],[34.322357,44.654072],[34.324193,44.653936],[34.325837,44.653559],[34.326687,44.653363],[34.327149,44.653279],[34.327903,44.65314],[34.329492,44.65274],[34.33029,44.652588],[34.33121,44.652378],[34.332098,44.652176],[34.333168,44.651976],[34.335114,44.651546],[34.335543,44.651452],[34.336549,44.652282],[34.336876,44.652553],[34.336785,44.652993],[34.336667,44.653566],[34.336989,44.653939],[34.337099,44.654357],[34.336862,44.655038],[34.337141,44.655433],[34.337286,44.655637],[34.336683,44.656083],[34.336686,44.656736],[34.336763,44.657504],[34.337049,44.657662],[34.337688,44.658017],[34.338192,44.658296],[34.338221,44.658664],[34.338266,44.659243],[34.338619,44.660265],[34.339674,44.660673],[34.340137,44.660561],[34.340498,44.660753],[34.341505,44.661288],[34.340891,44.661655],[34.340977,44.661898],[34.340717,44.662055],[34.340127,44.662411],[34.338903,44.662987],[34.338756,44.663056],[34.340178,44.664004],[34.340228,44.664036],[34.340677,44.66432],[34.340985,44.664301],[34.34106,44.664356],[34.341491,44.664673],[34.341554,44.665692],[34.341482,44.666444],[34.340916,44.666626],[34.340644,44.666636],[34.340571,44.666811],[34.34015,44.667818],[34.339855,44.668525],[34.340458,44.669409],[34.340445,44.669663],[34.338666,44.670954],[34.337845,44.671492],[34.337385,44.671793],[34.33689,44.672332],[34.3364,44.672866],[34.336391,44.67413],[34.33531,44.674599],[34.33498,44.674658],[34.333398,44.675131],[34.331813,44.675291],[34.331613,44.675311],[34.330611,44.674919],[34.330045,44.674776],[34.328637,44.674421],[34.327706,44.67422],[34.327461,44.674201],[34.326763,44.674145],[34.326467,44.674332],[34.326297,44.674439],[34.325367,44.674001],[34.323895,44.673918],[34.323574,44.674386],[34.323507,44.674484],[34.323465,44.674546],[34.323395,44.674611],[34.323019,44.674967],[34.322752,44.675219],[34.322712,44.675723],[34.322772,44.675889],[34.323531,44.677973],[34.323928,44.678372],[34.324771,44.678428],[34.324976,44.678516],[34.325664,44.678814],[34.326093,44.678978],[34.326881,44.67928],[34.327614,44.680093],[34.328267,44.680356],[34.328139,44.680835],[34.328483,44.681211],[34.328419,44.68174],[34.329507,44.681839],[34.329145,44.68234],[34.32994,44.682561],[34.330409,44.682836],[34.331895,44.682785],[34.332366,44.682452],[34.332742,44.68239],[34.33293,44.682359],[34.332927,44.683056],[34.332346,44.68466],[34.331957,44.685738],[34.331601,44.685837],[34.331077,44.685983],[34.330345,44.686371],[34.329785,44.686398],[34.328771,44.687872],[34.328786,44.68857],[34.328701,44.688777],[34.328594,44.689038],[34.328548,44.68915],[34.328427,44.689151],[34.327528,44.689159],[34.326842,44.689164],[34.325748,44.689325],[34.325053,44.689344],[34.324678,44.689355],[34.323796,44.689506],[34.323518,44.689795],[34.323438,44.69066],[34.323343,44.691051],[34.322183,44.691188],[34.320577,44.69123],[34.320096,44.691184],[34.318776,44.690815],[34.318565,44.690756],[34.318529,44.690228],[34.318479,44.68949],[34.31834,44.689203],[34.31802,44.688734],[34.317375,44.688731],[34.316978,44.688472],[34.316485,44.687662],[34.316046,44.68742],[34.315138,44.686919],[34.31462,44.686495],[34.314111,44.686423],[34.313312,44.686543],[34.312759,44.686837],[34.312105,44.686663],[34.312003,44.686524],[34.311987,44.68624],[34.311674,44.686154],[34.311138,44.68645],[34.310267,44.6862],[34.309344,44.685819],[34.308932,44.686025],[34.308732,44.685913],[34.308612,44.685914],[34.307995,44.685996],[34.308167,44.6866],[34.307834,44.68654],[34.307553,44.686502],[34.306968,44.687043],[34.306778,44.687478],[34.306782,44.687811],[34.307427,44.688082],[34.308706,44.689549],[34.30919,44.689783],[34.309797,44.690727],[34.309489,44.69095],[34.309882,44.69116],[34.310402,44.691145],[34.31134,44.691197],[34.312476,44.691141],[34.313422,44.691166],[34.313658,44.691138],[34.313898,44.692074],[34.313875,44.692741],[34.313946,44.692985],[34.313781,44.693605],[34.31349,44.693872],[34.31349,44.693872],[34.313713,44.693813],[34.313935,44.693755],[34.314006,44.693823],[34.314056,44.693871],[34.314271,44.693783],[34.314246,44.693682],[34.314231,44.693623],[34.31448,44.693503],[34.314835,44.693575],[34.315147,44.693616],[34.315528,44.693441],[34.315794,44.693466],[34.315817,44.693881],[34.316413,44.693778],[34.316873,44.69386],[34.317125,44.693953],[34.317933,44.693605],[34.318184,44.693618],[34.318413,44.693562],[34.31841,44.693526],[34.31875,44.693458],[34.31918,44.693417],[34.319446,44.693421],[34.319875,44.693459],[34.319873,44.693496],[34.319941,44.693498],[34.319945,44.693462],[34.321245,44.693521],[34.321339,44.693414],[34.321344,44.693416],[34.321403,44.693353],[34.321397,44.693348],[34.321433,44.693321],[34.321483,44.693268],[34.321524,44.693254],[34.321594,44.693204],[34.321746,44.693177],[34.321894,44.693126],[34.321991,44.6931],[34.321966,44.693043],[34.322437,44.692962],[34.322562,44.693308],[34.32254,44.693312],[34.322552,44.693341],[34.322737,44.693311],[34.322911,44.693312],[34.323084,44.693287],[34.323083,44.693197],[34.323083,44.693197],[34.323078,44.692871],[34.323081,44.692861],[34.323081,44.692786],[34.322754,44.692547],[34.321753,44.692469],[34.321766,44.69224],[34.321851,44.692218],[34.321882,44.692122],[34.321891,44.692118],[34.321997,44.692087],[34.322091,44.69208],[34.322112,44.69208],[34.322259,44.692086],[34.322264,44.692067],[34.322551,44.692043],[34.322787,44.692019],[34.323056,44.692131],[34.323063,44.692134],[34.323027,44.691472],[34.323261,44.691541],[34.323608,44.691489],[34.324297,44.691585],[34.3253,44.691685],[34.326237,44.69193],[34.326501,44.692079],[34.326695,44.692189],[34.326831,44.692251],[34.327133,44.692391],[34.327255,44.692419],[34.327152,44.692487],[34.326773,44.692605],[34.326744,44.692741],[34.32678,44.69276],[34.326803,44.692771],[34.326932,44.692749],[34.326972,44.692701],[34.327005,44.692703],[34.327063,44.692737],[34.327135,44.692793],[34.327122,44.692813],[34.327242,44.692897],[34.327273,44.692934],[34.327305,44.692973],[34.327342,44.692991],[34.327333,44.693007],[34.327343,44.693019],[34.327343,44.693019],[34.327386,44.693029],[34.327784,44.693117],[34.328113,44.693191],[34.328634,44.693299],[34.328737,44.693246],[34.328801,44.693316],[34.328899,44.693317],[34.328936,44.693358],[34.32893,44.693361],[34.32893,44.693361],[34.329099,44.693434],[34.329225,44.693466],[34.329272,44.693508],[34.329451,44.693669],[34.329447,44.693677],[34.329553,44.69377],[34.329698,44.694154],[34.329657,44.69424],[34.329595,44.69437],[34.329129,44.694825],[34.328691,44.695273],[34.328524,44.695546],[34.328395,44.695736],[34.328112,44.696032],[34.328111,44.69604],[34.328107,44.696256],[34.328154,44.696329],[34.328342,44.696621],[34.328489,44.696884],[34.327933,44.697364],[34.327727,44.697355],[34.327717,44.697333],[34.327711,44.697334],[34.327588,44.697218],[34.327588,44.697212],[34.327596,44.697076],[34.327609,44.69671],[34.327148,44.696627],[34.327038,44.696607],[34.326901,44.696788],[34.326884,44.696827],[34.326865,44.696834],[34.326844,44.696862],[34.326808,44.696856],[34.326647,44.696917],[34.326622,44.696864],[34.326561,44.696842],[34.326439,44.696799],[34.326439,44.696799],[34.326439,44.6968],[34.32638,44.696873],[34.326308,44.696964],[34.325905,44.697469],[34.325859,44.697454],[34.32585,44.697474],[34.325831,44.697517],[34.32523,44.697369],[34.325259,44.697335],[34.325259,44.697335],[34.324761,44.697141],[34.324783,44.697105],[34.324783,44.697105],[34.324614,44.697051],[34.324612,44.69705],[34.324548,44.697029],[34.324136,44.696924],[34.323676,44.697073],[34.323604,44.697106],[34.323459,44.697173],[34.323808,44.697325],[34.323983,44.697401],[34.324044,44.697516],[34.3243,44.697658],[34.324442,44.697736],[34.324621,44.69774],[34.325158,44.697754],[34.325867,44.697904],[34.325943,44.69792],[34.326083,44.698094],[34.326579,44.699729],[34.326431,44.700862],[34.326576,44.70092],[34.326822,44.701018],[34.326806,44.701071],[34.326774,44.701177],[34.326434,44.701601],[34.326325,44.701689],[34.326224,44.701829],[34.326177,44.701949],[34.326021,44.702114],[34.325893,44.70224],[34.325816,44.702284],[34.325739,44.702328],[34.325574,44.702556],[34.325492,44.703052],[34.325459,44.70309],[34.325355,44.703211],[34.325283,44.703199],[34.325194,44.703184],[34.325081,44.703023],[34.325088,44.702679],[34.325112,44.702361],[34.325059,44.702322],[34.324958,44.70243],[34.32487,44.702824],[34.324786,44.702976],[34.324609,44.703047],[34.324488,44.703095],[34.324385,44.703135],[34.324281,44.703176],[34.323908,44.703237],[34.323832,44.703249],[34.323569,44.70338],[34.323373,44.70336],[34.323232,44.703244],[34.323236,44.703059],[34.323671,44.702317],[34.323657,44.702145],[34.323475,44.702277],[34.323321,44.70234],[34.323216,44.702243],[34.322636,44.701684],[34.322641,44.70141],[34.322924,44.70147],[34.323016,44.70149],[34.32322,44.701593],[34.323462,44.702022],[34.323623,44.70203],[34.323688,44.701916],[34.323357,44.701435],[34.323542,44.701124],[34.323082,44.701293],[34.322815,44.701239],[34.322495,44.701097],[34.322462,44.70095],[34.322626,44.700836],[34.323048,44.700776],[34.323396,44.700817],[34.323512,44.700942],[34.323563,44.700997],[34.32371,44.701096],[34.323784,44.701146],[34.324401,44.700297],[34.323923,44.7],[34.324025,44.699797],[34.323883,44.699599],[34.323243,44.699413],[34.322759,44.699262],[34.32262,44.699186],[34.322617,44.69919],[34.322517,44.699354],[34.322599,44.699623],[34.322769,44.699797],[34.32353,44.700307],[34.323132,44.70044],[34.32259,44.700063],[34.322499,44.699973],[34.322316,44.699792],[34.322316,44.699776],[34.322321,44.699538],[34.3224,44.699442],[34.322491,44.699216],[34.322174,44.698926],[34.322014,44.698863],[34.321481,44.699574],[34.321201,44.699392],[34.321751,44.698658],[34.321756,44.698401],[34.321453,44.697826],[34.320668,44.697965],[34.320202,44.697961],[34.319978,44.698011],[34.319987,44.698114],[34.31994,44.698522],[34.319929,44.698617],[34.319754,44.698738],[34.319064,44.69872],[34.318769,44.69856],[34.318567,44.698424],[34.31822,44.698499],[34.318041,44.69881],[34.317934,44.699448],[34.317786,44.699738],[34.317469,44.699902],[34.317484,44.700049],[34.317499,44.700188],[34.31737,44.700382],[34.317417,44.700345],[34.31746,44.700311],[34.318114,44.699861],[34.318719,44.700987],[34.318379,44.702323],[34.31852,44.702805],[34.318028,44.702875],[34.317889,44.702815],[34.317785,44.702679],[34.317406,44.702731],[34.317184,44.703003],[34.316,44.703799],[34.315864,44.704134],[34.31578,44.704132],[34.315713,44.70415],[34.315529,44.70417],[34.315498,44.704229],[34.315577,44.704949],[34.315184,44.705734],[34.314853,44.706286],[34.314432,44.706288],[34.313681,44.706287],[34.313421,44.706406],[34.313092,44.706831],[34.312736,44.707438],[34.313084,44.707619],[34.313071,44.707701],[34.313606,44.707886],[34.313521,44.708419],[34.313136,44.709063],[34.313981,44.709693],[34.314571,44.710406],[34.314494,44.710663],[34.314862,44.710967],[34.31516,44.71102],[34.31582,44.711663],[34.316697,44.712221],[34.317517,44.711738],[34.318035,44.711923],[34.317987,44.712045],[34.318054,44.712298],[34.317785,44.712813],[34.317614,44.71357],[34.317697,44.714587],[34.317996,44.715164],[34.318493,44.715173],[34.318564,44.715238],[34.318481,44.715554],[34.318212,44.715596],[34.317064,44.715467],[34.316035,44.715543],[34.315416,44.715767],[34.314665,44.716],[34.314236,44.716018],[34.314074,44.716048],[34.312713,44.716299],[34.311531,44.716516],[34.311049,44.716451],[34.309676,44.716263],[34.309517,44.715076],[34.308075,44.7145],[34.306789,44.714918],[34.306595,44.714912],[34.306255,44.714902],[34.30572,44.714681],[34.304747,44.714278],[34.303417,44.714222],[34.303211,44.71408],[34.303079,44.713989],[34.302681,44.713993],[34.302232,44.714057],[34.300569,44.714294],[34.297977,44.714663],[34.297833,44.715042],[34.297847,44.715489],[34.297869,44.716203],[34.29798,44.716333],[34.299553,44.716954],[34.299969,44.717862],[34.300093,44.718131],[34.30023,44.718704],[34.29985,44.719152],[34.297856,44.71981],[34.296286,44.721096],[34.296085,44.721261],[34.295994,44.721891],[34.295151,44.722279],[34.294576,44.722432],[34.293694,44.722666],[34.292321,44.72336],[34.292045,44.723974],[34.29142,44.724673],[34.291245,44.72476],[34.290104,44.725325],[34.290006,44.725373],[34.289679,44.726031],[34.289505,44.726146],[34.289072,44.727073],[34.288395,44.726954],[34.28807,44.726925],[34.287075,44.726836],[34.286716,44.726803],[34.286195,44.727184],[34.28688,44.729387],[34.28718,44.730391],[34.287328,44.730889],[34.288422,44.731601],[34.288611,44.732373],[34.288388,44.733107],[34.288128,44.733965],[34.287656,44.737282],[34.287733,44.737256],[34.288115,44.737128],[34.288137,44.737121],[34.288158,44.737114],[34.290038,44.736483],[34.292057,44.735963],[34.304465,44.736157],[34.304885,44.73636],[34.305033,44.736431],[34.305316,44.736568],[34.306169,44.736979],[34.306685,44.737228],[34.308081,44.737901],[34.308138,44.738165],[34.308337,44.738253],[34.309107,44.738593],[34.310087,44.739026],[34.310171,44.739064],[34.310425,44.739171],[34.310772,44.739318],[34.312653,44.740113],[34.31319,44.739474],[34.313445,44.73917],[34.313548,44.739048],[34.31381,44.738736],[34.314201,44.739512],[34.314207,44.739525],[34.314214,44.739538],[34.314301,44.739711],[34.314342,44.739794],[34.314394,44.739809],[34.314934,44.739961],[34.315356,44.740387],[34.315752,44.740787],[34.316103,44.741141],[34.316353,44.741394],[34.316442,44.741483],[34.31753,44.741401],[34.319484,44.741252],[34.319696,44.741358],[34.320072,44.741547],[34.320703,44.741864],[34.321399,44.74095],[34.322239,44.741717],[34.32255,44.742],[34.322562,44.74201],[34.322577,44.742024],[34.322874,44.742296],[34.322853,44.743341],[34.323361,44.743638],[34.323502,44.743721],[34.323512,44.744752],[34.322452,44.745379],[34.322089,44.745593],[34.322119,44.746434],[34.32212,44.746472],[34.321553,44.746583],[34.321273,44.747094]],[[34.341156,44.755043],[34.341225,44.754988],[34.341037,44.754868],[34.341187,44.754743],[34.341422,44.754869],[34.34167,44.754968],[34.341779,44.754924],[34.341945,44.754974],[34.34231,44.755036],[34.342663,44.754898],[34.342977,44.754677],[34.343679,44.754666],[34.343783,44.754484],[34.343669,44.754334],[34.344056,44.75412],[34.344322,44.754291],[34.343828,44.754733],[34.34367,44.754734],[34.342971,44.754743],[34.342573,44.754982],[34.343322,44.754989],[34.343621,44.755091],[34.343726,44.754915],[34.343916,44.754972],[34.343985,44.754993],[34.344251,44.755073],[34.344343,44.755443],[34.344173,44.755737],[34.344089,44.755882],[34.343828,44.755789],[34.343692,44.755741],[34.343392,44.7558],[34.343352,44.755808],[34.342744,44.756247],[34.341862,44.755847],[34.341725,44.755869],[34.340785,44.755835],[34.340768,44.755909],[34.34065,44.755896],[34.340571,44.756344],[34.339823,44.756279],[34.339985,44.755818],[34.340672,44.755779],[34.341294,44.755707],[34.34155,44.755721],[34.341519,44.755604],[34.341169,44.755297],[34.340966,44.755166],[34.341156,44.755043]],[[34.359928,44.632768],[34.360275,44.632861],[34.360245,44.633032],[34.360315,44.633109],[34.360485,44.633111],[34.360516,44.633112],[34.36043,44.632822],[34.360647,44.632741],[34.360774,44.632624],[34.361,44.63256],[34.361492,44.632776],[34.361402,44.633097],[34.361501,44.633145],[34.36174,44.633064],[34.361904,44.632906],[34.362076,44.632837],[34.362555,44.633052],[34.36259,44.633116],[34.362515,44.633262],[34.362504,44.633383],[34.362647,44.633409],[34.362519,44.633542],[34.362383,44.633611],[34.362159,44.633635],[34.362041,44.633665],[34.36193,44.633894],[34.361849,44.6339],[34.361352,44.634558],[34.360801,44.634802],[34.360143,44.63458],[34.36021,44.634364],[34.360478,44.634404],[34.360699,44.6341],[34.360609,44.634087],[34.360422,44.633961],[34.360242,44.634234],[34.35965,44.634478],[34.359541,44.634432],[34.359948,44.63414],[34.360261,44.633853],[34.360168,44.63379],[34.359469,44.634262],[34.359368,44.634363],[34.359152,44.63445],[34.358931,44.634296],[34.359139,44.634124],[34.359175,44.634061],[34.359208,44.634068],[34.359222,44.634056],[34.359566,44.633951],[34.359632,44.633822],[34.359447,44.633719],[34.359376,44.633684],[34.359318,44.63363],[34.359189,44.633538],[34.359141,44.633603],[34.359024,44.633653],[34.358728,44.633663],[34.358742,44.633408],[34.358754,44.633332],[34.358689,44.633302],[34.358656,44.633268],[34.358738,44.633179],[34.358781,44.633152],[34.358782,44.633146],[34.358647,44.63296],[34.35868,44.632937],[34.358663,44.632917],[34.358744,44.632873],[34.359003,44.633024],[34.359015,44.633019],[34.359178,44.632915],[34.359345,44.632819],[34.359359,44.63282],[34.359928,44.632768]],[[34.323955,44.703811],[34.323619,44.704502],[34.323308,44.704818],[34.323128,44.704849],[34.323004,44.704822],[34.322799,44.704279],[34.322841,44.704012],[34.323458,44.703602],[34.323754,44.703535],[34.323852,44.703574],[34.323955,44.703811]],[[34.354346,44.616904],[34.35419,44.616688],[34.354162,44.616679],[34.354277,44.616592],[34.354296,44.616604],[34.354392,44.616688],[34.354485,44.61673],[34.354519,44.61692],[34.354346,44.616904]],[[34.354223,44.617284],[34.354107,44.617212],[34.354033,44.617098],[34.354037,44.617028],[34.354308,44.617123],[34.354339,44.617177],[34.354223,44.617284]],[[34.361158,44.691873],[34.361444,44.691755],[34.361679,44.691857],[34.361516,44.692015],[34.361158,44.691873]],[[34.366274,44.712506],[34.366737,44.712562],[34.366689,44.713061],[34.366383,44.713276],[34.366259,44.713299],[34.36576,44.713394],[34.365222,44.713497],[34.364624,44.713611],[34.36419,44.713694],[34.36404,44.713288],[34.363981,44.713127],[34.364444,44.713002],[34.365008,44.712804],[34.365481,44.712612],[34.365986,44.712544],[34.366274,44.712506]],[[34.371448,44.729474],[34.371441,44.729418],[34.371464,44.729358],[34.371494,44.729293],[34.371809,44.7295],[34.372023,44.72957],[34.372086,44.729544],[34.372169,44.729604],[34.372001,44.729605],[34.371858,44.729566],[34.371823,44.729642],[34.371665,44.729599],[34.371448,44.729474]],[[34.353218,44.742799],[34.35328,44.742587],[34.353495,44.742589],[34.353451,44.742833],[34.353218,44.742799]]]}},{"type":"Feature","properties":{"name":"Ялтинское лесное хозяйство, участок 2","kind":"territory","area_thousand_hectares":0.9,"label_points":[[34.291516,44.753732],[34.308107,44.753732]]},"geometry":{"type":"Polygon","coordinates":[[[34.312509,44.771502],[34.311027,44.767301],[34.311634,44.765089],[34.312246,44.76291],[34.313279,44.759183],[34.313569,44.758147],[34.314222,44.755794],[34.315275,44.7557],[34.316776,44.749579],[34.319641,44.746536],[34.321273,44.747094],[34.321553,44.746583],[34.32212,44.746472],[34.322119,44.746434],[34.322089,44.745593],[34.322452,44.745379],[34.323512,44.744752],[34.323502,44.743721],[34.323361,44.743638],[34.322853,44.743341],[34.322874,44.742296],[34.322577,44.742024],[34.322562,44.74201],[34.32255,44.742],[34.322239,44.741717],[34.321399,44.74095],[34.320703,44.741864],[34.320072,44.741547],[34.319696,44.741358],[34.319484,44.741252],[34.31753,44.741401],[34.316442,44.741483],[34.316353,44.741394],[34.316103,44.741141],[34.315752,44.740787],[34.315356,44.740387],[34.314934,44.739961],[34.314394,44.739809],[34.314342,44.739794],[34.314301,44.739711],[34.314214,44.739538],[34.314207,44.739525],[34.314201,44.739512],[34.31381,44.738736],[34.313548,44.739048],[34.313445,44.73917],[34.31319,44.739474],[34.312653,44.740113],[34.310772,44.739318],[34.310425,44.739171],[34.310171,44.739064],[34.310087,44.739026],[34.309107,44.738593],[34.308337,44.738253],[34.308138,44.738165],[34.308081,44.737901],[34.306685,44.737228],[34.306169,44.736979],[34.305316,44.736568],[34.305033,44.736431],[34.304885,44.73636],[34.304465,44.736157],[34.292057,44.735963],[34.290038,44.736483],[34.288158,44.737114],[34.288137,44.737121],[34.288115,44.737128],[34.287733,44.737256],[34.287656,44.737282],[34.287615,44.737337],[34.286812,44.738399],[34.286812,44.739044],[34.286811,44.741327],[34.285751,44.742632],[34.285542,44.742889],[34.284798,44.743281],[34.282602,44.744437],[34.281233,44.745158],[34.279731,44.745246],[34.279527,44.746582],[34.280376,44.748036],[34.280811,44.748758],[34.280346,44.749299],[34.279736,44.75001],[34.277549,44.752681],[34.276452,44.754134],[34.276111,44.759887],[34.278598,44.764288],[34.27915,44.764334],[34.280812,44.764474],[34.281226,44.764509],[34.281819,44.764524],[34.28233,44.764537],[34.284966,44.764605],[34.285392,44.764617],[34.285691,44.764624],[34.286359,44.764642],[34.288894,44.765535],[34.289703,44.76582],[34.290418,44.766072],[34.290075,44.762695],[34.289914,44.760392],[34.28988,44.759911],[34.290389,44.759888],[34.29225,44.759804],[34.292667,44.759785],[34.293077,44.759932],[34.294555,44.760461],[34.294982,44.760614],[34.295598,44.760835],[34.296853,44.761198],[34.297498,44.761385],[34.298865,44.762714],[34.300005,44.765118],[34.302817,44.764598],[34.303066,44.765376],[34.304184,44.765886],[34.304408,44.766996],[34.303112,44.767386],[34.302267,44.76764],[34.301702,44.767777],[34.299935,44.768911],[34.299643,44.769098],[34.299772,44.769644],[34.300198,44.77002],[34.300834,44.77024],[34.301798,44.770574],[34.303635,44.768933],[34.304515,44.770245],[34.305493,44.771353],[34.305692,44.771342],[34.309081,44.771157],[34.309802,44.771219],[34.311138,44.771333],[34.31146,44.77136],[34.312509,44.771502]]]}}]}
